[
  {
    "name": "MP Station Lausanne",
    "adresse": "Route du Pavement 1",
    "plz": "1018",
    "ort": "Lausanne",
    "kanton": "VD",
    "land": "Schweiz",
    "brand": "MP",
    "lat": 46.5298,
    "lng": 6.636028
  },
  {
    "name": "MP Station Lonay",
    "adresse": "Avenue de Morges 1",
    "plz": "1027",
    "ort": "Lonay",
    "kanton": "VD",
    "land": "Schweiz",
    "brand": "MP",
    "lat": 46.523318,
    "lng": 6.518732
  },
  {
    "name": "MP Station Bussy-Chardonney",
    "adresse": "Route de l'Etraz 37",
    "plz": "1136",
    "ort": "Bussy-Chardonney",
    "kanton": "VD",
    "land": "Schweiz",
    "brand": "MP",
    "lat": 46.528908,
    "lng": 6.44183
  },
  {
    "name": "MP Station Cuarnens",
    "adresse": "Route de Cossonay 8",
    "plz": "1148",
    "ort": "Villars-Bozon",
    "kanton": "VD",
    "land": "Schweiz",
    "brand": "MP",
    "lat": 46.624791,
    "lng": 6.442358
  },
  {
    "name": "MP Service Etoy",
    "adresse": "Route de l'industrie 10",
    "plz": "1163",
    "ort": "Etoy",
    "kanton": "VD",
    "land": "Schweiz",
    "brand": "MP",
    "lat": 46.475073,
    "lng": 6.424777
  },
  {
    "name": "MP Station Vernier-Cointrin",
    "adresse": "Avenue Louis-Casaï 34",
    "plz": "1216",
    "ort": "Cointrin",
    "kanton": "GE",
    "land": "Schweiz",
    "brand": "MP",
    "lat": 46.221133,
    "lng": 6.112815
  },
  {
    "name": "MP Station Meyrin",
    "adresse": "Avenue De Mategnin 16",
    "plz": "1217",
    "ort": "Meyrin",
    "kanton": "GE",
    "land": "Schweiz",
    "brand": "MP",
    "lat": 46.227803,
    "lng": 6.086524
  },
  {
    "name": "MP Service Le Grand-Sacconex",
    "adresse": "Route de Ferney 163",
    "plz": "1218",
    "ort": "Le Grand-Saconnex",
    "kanton": "GE",
    "land": "Schweiz",
    "brand": "MP",
    "lat": 46.232381,
    "lng": 6.123092
  },
  {
    "name": "MP Station Crassier",
    "adresse": "Route de Genève 2",
    "plz": "1263",
    "ort": "Crassier",
    "kanton": "VD",
    "land": "Schweiz",
    "brand": "MP",
    "lat": 46.373944,
    "lng": 6.16346
  },
  {
    "name": "MP Station Burtigny",
    "adresse": "Chemin De la Camisarde 3",
    "plz": "1268",
    "ort": "Burtigny",
    "kanton": "VD",
    "land": "Schweiz",
    "brand": "MP",
    "lat": 46.463139,
    "lng": 6.251791
  },
  {
    "name": "MP Station Penthaz",
    "adresse": "Route de Sullens 9",
    "plz": "1303",
    "ort": "Penthaz",
    "kanton": "VD",
    "land": "Schweiz",
    "brand": "MP",
    "lat": 46.597421,
    "lng": 6.542652
  },
  {
    "name": "MP Station Croy",
    "adresse": "Route de Vallorbe 1",
    "plz": "1322",
    "ort": "Croy",
    "kanton": "VD",
    "land": "Schweiz",
    "brand": "MP",
    "lat": 46.696409,
    "lng": 6.479159
  },
  {
    "name": "MP Station Vallorbe",
    "adresse": "Route des Jurats 37",
    "plz": "1337",
    "ort": "Vallorbe",
    "kanton": "VD",
    "land": "Schweiz",
    "brand": "MP",
    "lat": 46.696419,
    "lng": 6.479168
  },
  {
    "name": "MP Station Le Sentier",
    "adresse": "Rue de la Golisse 7",
    "plz": "1347",
    "ort": "Le Solliat",
    "kanton": "VD",
    "land": "Schweiz",
    "brand": "MP",
    "lat": 46.61504,
    "lng": 6.235584
  },
  {
    "name": "MP Service Chavornay",
    "adresse": "Rue de la Gare 2",
    "plz": "1373",
    "ort": "Chavornay",
    "kanton": "VD",
    "land": "Schweiz",
    "brand": "MP",
    "lat": 46.709451,
    "lng": 6.570543
  },
  {
    "name": "MP Service Yverdon",
    "adresse": "Avenue Haldimand 81",
    "plz": "1400",
    "ort": "Yverdon-les-Bains",
    "kanton": "VD",
    "land": "Schweiz",
    "brand": "MP",
    "lat": 46.7789,
    "lng": 6.64954
  },
  {
    "name": "MP Station Grandson",
    "adresse": "Route de Lausanne 22",
    "plz": "1422",
    "ort": "Grandson",
    "kanton": "VD",
    "land": "Schweiz",
    "brand": "MP",
    "lat": 46.800036,
    "lng": 6.628995
  },
  {
    "name": "MP Station Estavayer-le-lac",
    "adresse": "Route de Payerne 15",
    "plz": "1470",
    "ort": "Seiry",
    "kanton": "FR",
    "land": "Schweiz",
    "brand": "MP",
    "lat": 46.845802,
    "lng": 6.852472
  },
  {
    "name": "MP Station Cugy",
    "adresse": "Route de Payerne 2",
    "plz": "1482",
    "ort": "Cugy FR",
    "kanton": "FR",
    "land": "Schweiz",
    "brand": "MP",
    "lat": 46.815341,
    "lng": 6.894945
  },
  {
    "name": "MP Station Henniez",
    "adresse": "Route de la Grande Raye 2.1",
    "plz": "1525",
    "ort": "Seigneux",
    "kanton": "VD",
    "land": "Schweiz",
    "brand": "MP",
    "lat": 46.7296436672,
    "lng": 6.8694809118
  },
  {
    "name": "MP Station Payerne",
    "adresse": "Route de Grandcour 71",
    "plz": "1530",
    "ort": "Payerne",
    "kanton": "VD",
    "land": "Schweiz",
    "brand": "MP",
    "lat": 46.8313,
    "lng": 6.935536
  },
  {
    "name": "MP Station Grandcour",
    "adresse": "Route du Vully 73",
    "plz": "1543",
    "ort": "Grandcour",
    "kanton": "VD",
    "land": "Schweiz",
    "brand": "MP",
    "lat": 46.871442,
    "lng": 6.935523
  },
  {
    "name": "MP Station Corcelles",
    "adresse": "Route du Grand Chemin 30",
    "plz": "1562",
    "ort": "Corcelles-près-Payerne",
    "kanton": "VD",
    "land": "Schweiz",
    "brand": "MP",
    "lat": 46.829499,
    "lng": 6.957219
  },
  {
    "name": "MP Station Avenches",
    "adresse": "Rue de Lausanne 2",
    "plz": "1580",
    "ort": "Avenches",
    "kanton": "VD",
    "land": "Schweiz",
    "brand": "MP",
    "lat": 46.8787840480587,
    "lng": 7.03817900060757
  },
  {
    "name": "MP Station Faoug",
    "adresse": "Route de Morat 3",
    "plz": "1595",
    "ort": "Faoug",
    "kanton": "VD",
    "land": "Schweiz",
    "brand": "MP",
    "lat": 46.908563,
    "lng": 7.078305
  },
  {
    "name": "MP Station Semsales",
    "adresse": "Grand-Rue 17",
    "plz": "1623",
    "ort": "Semsales",
    "kanton": "FR",
    "land": "Schweiz",
    "brand": "MP",
    "lat": 46.574524,
    "lng": 6.928533
  },
  {
    "name": "MP Station La Roche",
    "adresse": "Route de Fribourg 80",
    "plz": "1634",
    "ort": "La Roche FR",
    "kanton": "FR",
    "land": "Schweiz",
    "brand": "MP",
    "lat": 46.700759,
    "lng": 7.145651
  },
  {
    "name": "MP Station La Tour-de-tèrme",
    "adresse": "Rue de l'Ancien Comté 4",
    "plz": "1635",
    "ort": "La Tour-de-Trême",
    "kanton": "FR",
    "land": "Schweiz",
    "brand": "MP",
    "lat": 46.611651,
    "lng": 7.061572
  },
  {
    "name": "MP Station Broc",
    "adresse": "Rue du Prieuré 38",
    "plz": "1636",
    "ort": "Broc",
    "kanton": "FR",
    "land": "Schweiz",
    "brand": "MP",
    "lat": 46.60318,
    "lng": 7.093923
  },
  {
    "name": "MP Station Charmey",
    "adresse": "La Tzintre 1",
    "plz": "1637",
    "ort": "Charmey (Gruyère)",
    "kanton": "FR",
    "land": "Schweiz",
    "brand": "MP",
    "lat": 46.61547,
    "lng": 7.17048
  },
  {
    "name": "MP Station Avry-devant-Pont",
    "adresse": "Route de la Gruyère 115",
    "plz": "1644",
    "ort": "Avry-devant-Pont",
    "kanton": "FR",
    "land": "Schweiz",
    "brand": "MP",
    "lat": 46.67055,
    "lng": 7.110379
  },
  {
    "name": "MP Station Corbières",
    "adresse": "Route du Vanel 121",
    "plz": "1647",
    "ort": "Corbières",
    "kanton": "FR",
    "land": "Schweiz",
    "brand": "MP",
    "lat": 46.659427,
    "lng": 7.104489
  },
  {
    "name": "MP Station Neirivue",
    "adresse": "Route de l'Intyamon 14",
    "plz": "1669",
    "ort": "Neirivue",
    "kanton": "FR",
    "land": "Schweiz",
    "brand": "MP",
    "lat": 46.530052,
    "lng": 7.062115
  },
  {
    "name": "MP Station Chavnannes-les-Forts",
    "adresse": "Route d'Oron 92",
    "plz": "1676",
    "ort": "Chavannes-les-Forts",
    "kanton": "FR",
    "land": "Schweiz",
    "brand": "MP",
    "lat": 46.654844,
    "lng": 6.901064
  },
  {
    "name": "MP Station Siviriez",
    "adresse": "Route d'Ursy 46",
    "plz": "1678",
    "ort": "Siviriez",
    "kanton": "FR",
    "land": "Schweiz",
    "brand": "MP",
    "lat": 46.655285,
    "lng": 6.87198
  },
  {
    "name": "MP Station Villaz-St-Pierre",
    "adresse": "Route de Fribourg 2",
    "plz": "1690",
    "ort": "Villaz-St-Pierre",
    "kanton": "FR",
    "land": "Schweiz",
    "brand": "MP",
    "lat": 46.718747,
    "lng": 6.96071
  },
  {
    "name": "MP Station Fribourg",
    "adresse": "Route de Berne 24",
    "plz": "1700",
    "ort": "Fribourg",
    "kanton": "FR",
    "land": "Schweiz",
    "brand": "MP",
    "lat": 46.811518,
    "lng": 7.173021
  },
  {
    "name": "MP Station Fribourg",
    "adresse": "Route de Beaumont 6a",
    "plz": "1700",
    "ort": "Fribourg",
    "kanton": "FR",
    "land": "Schweiz",
    "brand": "MP",
    "lat": 46.796243,
    "lng": 7.143744
  },
  {
    "name": "MP Station Tafers",
    "adresse": "Mariahilfstrasse 6",
    "plz": "1712",
    "ort": "Tafers",
    "kanton": "FR",
    "land": "Schweiz",
    "brand": "MP",
    "lat": 46.817268,
    "lng": 7.214832
  },
  {
    "name": "MP Station Plaffeien",
    "adresse": "Telmoos 1",
    "plz": "1716",
    "ort": "Schwarzsee",
    "kanton": "FR",
    "land": "Schweiz",
    "brand": "MP",
    "lat": 46.740047,
    "lng": 7.288831
  },
  {
    "name": "MP Station Schwarzsee",
    "adresse": "Kaspera 481",
    "plz": "1716",
    "ort": "Schwarzsee",
    "kanton": "FR",
    "land": "Schweiz",
    "brand": "MP",
    "lat": 46.675076,
    "lng": 7.292871
  },
  {
    "name": "MP Station Zumholz",
    "adresse": "Hauptstrasse 26",
    "plz": "1719",
    "ort": "Zumholz",
    "kanton": "FR",
    "land": "Schweiz",
    "brand": "MP",
    "lat": 46.754193,
    "lng": 7.290306
  },
  {
    "name": "MP Station Corminboeuf",
    "adresse": "Route du Centre 7",
    "plz": "1720",
    "ort": "Corminboeuf",
    "kanton": "FR",
    "land": "Schweiz",
    "brand": "MP",
    "lat": 46.80811,
    "lng": 7.104155
  },
  {
    "name": "MP Station Essert",
    "adresse": "Route de la Gruyère 88",
    "plz": "1724",
    "ort": "Zénauva",
    "kanton": "FR",
    "land": "Schweiz",
    "brand": "MP",
    "lat": 46.734192,
    "lng": 7.165894
  },
  {
    "name": "MP Station Posieux",
    "adresse": "Route de Fribourg 50",
    "plz": "1725",
    "ort": "Posieux",
    "kanton": "FR",
    "land": "Schweiz",
    "brand": "MP",
    "lat": 46.759224,
    "lng": 7.09308
  },
  {
    "name": "MP Station Fravgny",
    "adresse": "Route de Fribourg 38",
    "plz": "1726",
    "ort": "Posat",
    "kanton": "FR",
    "land": "Schweiz",
    "brand": "MP",
    "lat": 46.72436,
    "lng": 7.068791
  },
  {
    "name": "MP Station Ependes",
    "adresse": "Chemin des Planchettes 2",
    "plz": "1731",
    "ort": "Ependes FR",
    "kanton": "FR",
    "land": "Schweiz",
    "brand": "MP",
    "lat": 46.755871,
    "lng": 7.14777
  },
  {
    "name": "MP Station Tentlingen",
    "adresse": "Oberlandstrasse 13",
    "plz": "1734",
    "ort": "Tentlingen",
    "kanton": "FR",
    "land": "Schweiz",
    "brand": "MP",
    "lat": 46.767777,
    "lng": 7.200246
  },
  {
    "name": "MP Station Cottens",
    "adresse": "Route de Lentigny 1",
    "plz": "1741",
    "ort": "Cottens FR",
    "kanton": "FR",
    "land": "Schweiz",
    "brand": "MP",
    "lat": 46.752235,
    "lng": 7.030902
  },
  {
    "name": "MP Station Autigny",
    "adresse": "Ruelle de la Forge 8",
    "plz": "1742",
    "ort": "Autigny",
    "kanton": "FR",
    "land": "Schweiz",
    "brand": "MP",
    "lat": 46.736162,
    "lng": 7.020526
  },
  {
    "name": "MP Station Villars s/Glâne",
    "adresse": "Route des Foyards 1",
    "plz": "1752",
    "ort": "Villars-sur-Glâne",
    "kanton": "FR",
    "land": "Schweiz",
    "brand": "MP",
    "lat": 46.789859,
    "lng": 7.113379
  },
  {
    "name": "MP Station Rosé",
    "adresse": "Route de Rosé 74",
    "plz": "1754",
    "ort": "Rosé",
    "kanton": "FR",
    "land": "Schweiz",
    "brand": "MP",
    "lat": 46.78325,
    "lng": 7.056505
  },
  {
    "name": "MP Station Givisiez",
    "adresse": "Route de la Chassotte 5",
    "plz": "1762",
    "ort": "Givisiez",
    "kanton": "FR",
    "land": "Schweiz",
    "brand": "MP",
    "lat": 46.812024,
    "lng": 7.13549
  },
  {
    "name": "MP Station Praz",
    "adresse": "Route Principale 128",
    "plz": "1788",
    "ort": "Praz (Vully)",
    "kanton": "FR",
    "land": "Schweiz",
    "brand": "MP",
    "lat": 46.9537,
    "lng": 7.098502
  },
  {
    "name": "MP Station Courtepin",
    "adresse": "Murtenstrasse 42",
    "plz": "1791",
    "ort": "Courtaman",
    "kanton": "FR",
    "land": "Schweiz",
    "brand": "MP",
    "lat": 46.87324,
    "lng": 7.12541
  },
  {
    "name": "MP Station Blonay",
    "adresse": "Route du Village 40",
    "plz": "1807",
    "ort": "Blonay",
    "kanton": "VD",
    "land": "Schweiz",
    "brand": "MP",
    "lat": 46.4654,
    "lng": 6.894779
  },
  {
    "name": "MP Station Bex",
    "adresse": "Route du Grand-Saint-Bernard 17",
    "plz": "1880",
    "ort": "Les Plans-sur-Bex",
    "kanton": "VD",
    "land": "Schweiz",
    "brand": "MP",
    "lat": 46.250914,
    "lng": 7.002426
  },
  {
    "name": "MP Station Vionnaz",
    "adresse": "Route du Léman 71",
    "plz": "1895",
    "ort": "Vionnaz",
    "kanton": "VS",
    "land": "Schweiz",
    "brand": "MP",
    "lat": 46.3178564123,
    "lng": 6.8965689324
  },
  {
    "name": "MP Station St-Gingolph",
    "adresse": "Route cantonale 66",
    "plz": "1898",
    "ort": "St-Gingolph",
    "kanton": "VS",
    "land": "Schweiz",
    "brand": "MP",
    "lat": 46.38629,
    "lng": 6.837786
  },
  {
    "name": "MP Service Saxon",
    "adresse": "Route d'Ecône 119",
    "plz": "1907",
    "ort": "Saxon",
    "kanton": "VS",
    "land": "Schweiz",
    "brand": "MP",
    "lat": 46.160764,
    "lng": 7.198972
  },
  {
    "name": "MP Service Martigny",
    "adresse": "Rue du Léman 41",
    "plz": "1920",
    "ort": "Martigny",
    "kanton": "VS",
    "land": "Schweiz",
    "brand": "MP",
    "lat": 46.10823,
    "lng": 7.067022
  },
  {
    "name": "MP Tankstelle Sembrancher",
    "adresse": "Route du Grand-St-Bernard 10",
    "plz": "1933",
    "ort": "Vens (Sembrancher)",
    "kanton": "VS",
    "land": "Schweiz",
    "brand": "MP",
    "lat": 46.077912,
    "lng": 7.140341
  },
  {
    "name": "MP Station Sion",
    "adresse": "Rue de Savoie 31",
    "plz": "1950",
    "ort": "Sion",
    "kanton": "VS",
    "land": "Schweiz",
    "brand": "MP",
    "lat": 46.225535,
    "lng": 7.332105
  },
  {
    "name": "MP Station Sion",
    "adresse": "Rue de la Caserne 31",
    "plz": "1950",
    "ort": "Sion",
    "kanton": "VS",
    "land": "Schweiz",
    "brand": "MP",
    "lat": 46.227967,
    "lng": 7.376122
  },
  {
    "name": "MP Station Champlan",
    "adresse": "Route de Sion 19a",
    "plz": "1971",
    "ort": "Champlan (Grimisuat)",
    "kanton": "VS",
    "land": "Schweiz",
    "brand": "MP",
    "lat": 46.245519,
    "lng": 7.370084
  },
  {
    "name": "MP Station Haute-Nendaz",
    "adresse": "Route de Nendaz 700",
    "plz": "1997",
    "ort": "Siviez (Nendaz)",
    "kanton": "VS",
    "land": "Schweiz",
    "brand": "MP",
    "lat": 46.186697,
    "lng": 7.303243
  },
  {
    "name": "MP Service Neuchâtel",
    "adresse": "Rue des Draizes 80",
    "plz": "2000",
    "ort": "Neuchâtel",
    "kanton": "NE",
    "land": "Schweiz",
    "brand": "MP",
    "lat": 46.989019,
    "lng": 6.899191
  },
  {
    "name": "MP Station Neuchâtel Atelier SPCH",
    "adresse": "Route de Gorges-du-Seyon 1",
    "plz": "2000",
    "ort": "Neuchâtel",
    "kanton": "NE",
    "land": "Schweiz",
    "brand": "MP",
    "lat": 46.9896933316,
    "lng": 6.9061658062
  },
  {
    "name": "MP Station Neuchâtel Route des Gouttes",
    "adresse": "Route des Gouttes d'Or 78",
    "plz": "2000",
    "ort": "Neuchâtel",
    "kanton": "NE",
    "land": "Schweiz",
    "brand": "MP",
    "lat": 47.007542,
    "lng": 6.967254
  },
  {
    "name": "MP Station Neuchâtel Rue du Seyon",
    "adresse": "Rue du Seyon 38",
    "plz": "2000",
    "ort": "Neuchâtel",
    "kanton": "NE",
    "land": "Schweiz",
    "brand": "MP",
    "lat": 46.993539,
    "lng": 6.927689
  },
  {
    "name": "MP Service Bôle",
    "adresse": "Sous-le-Pré 19",
    "plz": "2014",
    "ort": "Bôle",
    "kanton": "NE",
    "land": "Schweiz",
    "brand": "MP",
    "lat": 46.968566,
    "lng": 6.848274
  },
  {
    "name": "MP Station Cortaillod",
    "adresse": "Chemin Des Murgiers",
    "plz": "2016",
    "ort": "Cortaillod",
    "kanton": "NE",
    "land": "Schweiz",
    "brand": "MP",
    "lat": 46.943452,
    "lng": 6.841052
  },
  {
    "name": "MP Service St. Aubin",
    "adresse": "Avenue de Neuchâtel 93",
    "plz": "2024",
    "ort": "St-Aubin-Sauges",
    "kanton": "NE",
    "land": "Schweiz",
    "brand": "MP",
    "lat": 46.897896,
    "lng": 6.78105
  },
  {
    "name": "MP Service Peseux",
    "adresse": "Rue du Tombé 24",
    "plz": "2034",
    "ort": "Peseux",
    "kanton": "NE",
    "land": "Schweiz",
    "brand": "MP",
    "lat": 46.985734,
    "lng": 6.896415
  },
  {
    "name": "MP Service Corcelles Rue de la Chapelle",
    "adresse": "Rue de la Chapelle 54",
    "plz": "2035",
    "ort": "Corcelles NE",
    "kanton": "NE",
    "land": "Schweiz",
    "brand": "MP",
    "lat": 46.986077,
    "lng": 6.865357
  },
  {
    "name": "MP Station Corcelles",
    "adresse": "Rue de la Chapelle 52",
    "plz": "2035",
    "ort": "Corcelles NE",
    "kanton": "NE",
    "land": "Schweiz",
    "brand": "MP",
    "lat": 46.985575,
    "lng": 6.86569
  },
  {
    "name": "MP Station Valangin",
    "adresse": "Route de Neuchâtel 1",
    "plz": "2042",
    "ort": "Valangin",
    "kanton": "NE",
    "land": "Schweiz",
    "brand": "MP",
    "lat": 47.015892,
    "lng": 6.906349
  },
  {
    "name": "MP Station Boudevilliers",
    "adresse": "Centre du Village",
    "plz": "2043",
    "ort": "Boudevilliers",
    "kanton": "NE",
    "land": "Schweiz",
    "brand": "MP",
    "lat": 47.0273365655,
    "lng": 6.8891099296
  },
  {
    "name": "MP Station Fontaines",
    "adresse": "Grand Rue 5",
    "plz": "2046",
    "ort": "Fontaines NE",
    "kanton": "NE",
    "land": "Schweiz",
    "brand": "MP",
    "lat": 47.041407,
    "lng": 6.899166
  },
  {
    "name": "MP Station La Vue des Alpes",
    "adresse": "Route de la Vue-des-Alpes 9",
    "plz": "2052",
    "ort": "La Vue-des-Alpes",
    "kanton": "NE",
    "land": "Schweiz",
    "brand": "MP",
    "lat": 47.0727999236,
    "lng": 6.8693243294
  },
  {
    "name": "MP Station Chézard-St-Martin",
    "adresse": "Grand Rue 68",
    "plz": "2054",
    "ort": "Les Vieux-Prés",
    "kanton": "NE",
    "land": "Schweiz",
    "brand": "MP",
    "lat": 47.065453,
    "lng": 6.929893
  },
  {
    "name": "MP Station Cressier",
    "adresse": "Route de Neuchâtel 25",
    "plz": "2088",
    "ort": "Cressier NE",
    "kanton": "NE",
    "land": "Schweiz",
    "brand": "MP",
    "lat": 47.049139,
    "lng": 7.035142
  },
  {
    "name": "MP Station Travers",
    "adresse": "Rue des Moulins 5",
    "plz": "2105",
    "ort": "Travers",
    "kanton": "NE",
    "land": "Schweiz",
    "brand": "MP",
    "lat": 46.93809,
    "lng": 6.67047
  },
  {
    "name": "MP Station Couvet",
    "adresse": "Rue de la Gare 13",
    "plz": "2108",
    "ort": "Couvet",
    "kanton": "NE",
    "land": "Schweiz",
    "brand": "MP",
    "lat": 46.9296547866,
    "lng": 6.6307034147
  },
  {
    "name": "MP Station Môtier",
    "adresse": "Rue du Collège 15",
    "plz": "2112",
    "ort": "Môtiers NE",
    "kanton": "NE",
    "land": "Schweiz",
    "brand": "MP",
    "lat": 46.909146,
    "lng": 6.607238
  },
  {
    "name": "MP Service Les Verrières",
    "adresse": "La Croix Blanche 35",
    "plz": "2126",
    "ort": "Les Verrières",
    "kanton": "NE",
    "land": "Schweiz",
    "brand": "MP",
    "lat": 46.903104,
    "lng": 6.474082
  },
  {
    "name": "MP Station La Chaux-de-Fonds",
    "adresse": "Rue des Enterpôts 29",
    "plz": "2300",
    "ort": "La Chaux-de-Fonds",
    "kanton": "NE",
    "land": "Schweiz",
    "brand": "MP",
    "lat": 47.093173,
    "lng": 6.815056
  },
  {
    "name": "MP Station La Chaux-de-Fonds",
    "adresse": "Rue Fritz-Courvoisier 28",
    "plz": "2300",
    "ort": "La Cibourg",
    "kanton": "NE",
    "land": "Schweiz",
    "brand": "MP",
    "lat": 47.104349,
    "lng": 6.835551
  },
  {
    "name": "MP Station Les Ponts de Martel",
    "adresse": "Grande Rue 3",
    "plz": "2316",
    "ort": "Les Ponts-de-Martel",
    "kanton": "NE",
    "land": "Schweiz",
    "brand": "MP",
    "lat": 46.998517,
    "lng": 6.735176
  },
  {
    "name": "MP Station Le Crêt-du-Locle",
    "adresse": "Crèt du Locle 5c",
    "plz": "2322",
    "ort": "Le Crêt-du-Locle",
    "kanton": "NE",
    "land": "Schweiz",
    "brand": "MP",
    "lat": 47.0793457028,
    "lng": 6.7874352534
  },
  {
    "name": "MP Station La Brévine",
    "adresse": "Village 215a",
    "plz": "2406",
    "ort": "La Brévine",
    "kanton": "NE",
    "land": "Schweiz",
    "brand": "MP",
    "lat": 46.9795188551,
    "lng": 6.6069733904
  },
  {
    "name": "MP Station Cerneux-Péquignot",
    "adresse": "Le Gardot 36",
    "plz": "2414",
    "ort": "Le Cerneux-Péquignot",
    "kanton": "NE",
    "land": "Schweiz",
    "brand": "MP",
    "lat": 47.011329,
    "lng": 6.647951
  },
  {
    "name": "MP Station Biel G.-F.-Heil.strasse",
    "adresse": "G.-F.-Heilmann-Strasse 16",
    "plz": "2502",
    "ort": "Biel/Bienne",
    "kanton": "BE",
    "land": "Schweiz",
    "brand": "MP",
    "lat": 47.143049,
    "lng": 7.250053
  },
  {
    "name": "MP Service Biel",
    "adresse": "Aarbergstrasse 71",
    "plz": "2503",
    "ort": "Biel/Bienne",
    "kanton": "BE",
    "land": "Schweiz",
    "brand": "MP",
    "lat": 47.131922,
    "lng": 7.239678
  },
  {
    "name": "MP Station Biel",
    "adresse": "Mettstrasse 103",
    "plz": "2504",
    "ort": "Biel/Bienne",
    "kanton": "BE",
    "land": "Schweiz",
    "brand": "MP",
    "lat": 47.142046,
    "lng": 7.268966
  },
  {
    "name": "MP Station Biel Längfeldw.",
    "adresse": "Längfeldweg 118",
    "plz": "2504",
    "ort": "Biel/Bienne",
    "kanton": "BE",
    "land": "Schweiz",
    "brand": "MP",
    "lat": 47.153746,
    "lng": 7.285736
  },
  {
    "name": "MP Station Biel Lindenhofstrasse",
    "adresse": "Lindenhofstrasse 40",
    "plz": "2504",
    "ort": "Biel/Bienne",
    "kanton": "BE",
    "land": "Schweiz",
    "brand": "MP",
    "lat": 47.140333,
    "lng": 7.283833
  },
  {
    "name": "MP Station Diesse",
    "adresse": "Route de Lamboing 24a",
    "plz": "2517",
    "ort": "Diesse",
    "kanton": "BE",
    "land": "Schweiz",
    "brand": "MP",
    "lat": 47.113711,
    "lng": 7.120658
  },
  {
    "name": "MP Station La Neuveville",
    "adresse": "Route du Château 39",
    "plz": "2520",
    "ort": "La Neuveville",
    "kanton": "BE",
    "land": "Schweiz",
    "brand": "MP",
    "lat": 47.066131,
    "lng": 7.090598
  },
  {
    "name": "RR Tankstelle Grenchen",
    "adresse": "Quartierstrasse 3",
    "plz": "2540",
    "ort": "Grenchen",
    "kanton": "SO",
    "land": "Schweiz",
    "brand": "RR",
    "lat": 47.194773,
    "lng": 7.394026
  },
  {
    "name": "MP Tankstelle Pieterlen",
    "adresse": "Boole 7",
    "plz": "2542",
    "ort": "Pieterlen",
    "kanton": "BE",
    "land": "Schweiz",
    "brand": "MP",
    "lat": 47.169061,
    "lng": 7.336815
  },
  {
    "name": "RR Tankstelle Lengnau",
    "adresse": "Bielstrasse 34",
    "plz": "2543",
    "ort": "Lengnau BE",
    "kanton": "BE",
    "land": "Schweiz",
    "brand": "RR",
    "lat": 47.180536,
    "lng": 7.361415
  },
  {
    "name": "MP Station Selzach",
    "adresse": "Bielstrasse 21",
    "plz": "2545",
    "ort": "Selzach",
    "kanton": "SO",
    "land": "Schweiz",
    "brand": "MP",
    "lat": 47.202139,
    "lng": 7.452837
  },
  {
    "name": "MP Tankstelle Safnern",
    "adresse": "Industriestrasse 28",
    "plz": "2553",
    "ort": "Safnern",
    "kanton": "BE",
    "land": "Schweiz",
    "brand": "MP",
    "lat": 47.156083,
    "lng": 7.335847
  },
  {
    "name": "RR Tankstelle Meinisberg",
    "adresse": "Hauptstrasse 112",
    "plz": "2554",
    "ort": "Meinisberg",
    "kanton": "BE",
    "land": "Schweiz",
    "brand": "RR",
    "lat": 47.160775,
    "lng": 7.354552
  },
  {
    "name": "MP Tankstelle Scheuren",
    "adresse": "Hauptstrasse 25a",
    "plz": "2556",
    "ort": "Schwadernau",
    "kanton": "BE",
    "land": "Schweiz",
    "brand": "MP",
    "lat": 47.133229,
    "lng": 7.317181
  },
  {
    "name": "MP Service Nidau",
    "adresse": "Bernstrasse 5",
    "plz": "2560",
    "ort": "Nidau",
    "kanton": "BE",
    "land": "Schweiz",
    "brand": "MP",
    "lat": 47.127728,
    "lng": 7.243481
  },
  {
    "name": "RR Tankstelle Finsterhennen",
    "adresse": "Hauptstrasse 1",
    "plz": "2577",
    "ort": "Siselen BE",
    "kanton": "BE",
    "land": "Schweiz",
    "brand": "RR",
    "lat": 47.026139,
    "lng": 7.176896
  },
  {
    "name": "MP Station Pery",
    "adresse": "Zone Industrielle Rondchâtel",
    "plz": "2603",
    "ort": "Péry",
    "kanton": "BE",
    "land": "Schweiz",
    "brand": "MP",
    "lat": 47.1841334386401,
    "lng": 7.24889339145226
  },
  {
    "name": "MP Station Péry",
    "adresse": "Rue de la Reuchenette 32",
    "plz": "2603",
    "ort": "Péry",
    "kanton": "BE",
    "land": "Schweiz",
    "brand": "MP",
    "lat": 47.190548,
    "lng": 7.242745
  },
  {
    "name": "MP Station Péry",
    "adresse": "Zone Industrielle Rondchâtel",
    "plz": "2603",
    "ort": "Péry",
    "kanton": "BE",
    "land": "Schweiz",
    "brand": "MP",
    "lat": 47.1841334386401,
    "lng": 7.24889339145226
  },
  {
    "name": "MP Station Sonceboz-Sombeval",
    "adresse": "Route de Bienne 1",
    "plz": "2605",
    "ort": "Sonceboz-Sombeval",
    "kanton": "BE",
    "land": "Schweiz",
    "brand": "MP",
    "lat": 47.194768,
    "lng": 7.179414
  },
  {
    "name": "MP Station Corgémont",
    "adresse": "Grand-Rue 29",
    "plz": "2606",
    "ort": "Corgémont",
    "kanton": "BE",
    "land": "Schweiz",
    "brand": "MP",
    "lat": 47.193838,
    "lng": 7.142076
  },
  {
    "name": "MP Station Cortébert",
    "adresse": "Grand Rue 9",
    "plz": "2607",
    "ort": "Cortébert",
    "kanton": "BE",
    "land": "Schweiz",
    "brand": "MP",
    "lat": 47.19118,
    "lng": 7.112359
  },
  {
    "name": "MP Station St-Imier",
    "adresse": "Rue du Midi 49",
    "plz": "2610",
    "ort": "St-Imier",
    "kanton": "BE",
    "land": "Schweiz",
    "brand": "MP",
    "lat": 47.153683,
    "lng": 7.003737
  },
  {
    "name": "MP Station Villeret",
    "adresse": "Rue Principale 62",
    "plz": "2613",
    "ort": "Villeret",
    "kanton": "BE",
    "land": "Schweiz",
    "brand": "MP",
    "lat": 47.15466,
    "lng": 7.014563
  },
  {
    "name": "MP Station Renan",
    "adresse": "Grand-Rue 3",
    "plz": "2616",
    "ort": "Renan BE",
    "kanton": "BE",
    "land": "Schweiz",
    "brand": "MP",
    "lat": 47.128208,
    "lng": 6.931824
  },
  {
    "name": "MP Service Reconvilier",
    "adresse": "Route de Tavannes 44",
    "plz": "2732",
    "ort": "Saules BE",
    "kanton": "BE",
    "land": "Schweiz",
    "brand": "MP",
    "lat": 47.233327,
    "lng": 7.21834
  },
  {
    "name": "MP Station Moutier",
    "adresse": "Rue du Viaduc 27a",
    "plz": "2740",
    "ort": "Moutier",
    "kanton": "BE",
    "land": "Schweiz",
    "brand": "MP",
    "lat": 47.276805,
    "lng": 7.372926
  },
  {
    "name": "MP Station Vicques",
    "adresse": "Route de Recolaine 13",
    "plz": "2824",
    "ort": "Vicques",
    "kanton": "JU",
    "land": "Schweiz",
    "brand": "MP",
    "lat": 47.350628,
    "lng": 7.423541
  },
  {
    "name": "RR Tankstelle Bern Mittelstrasse",
    "adresse": "Mittelstrasse 11",
    "plz": "3012",
    "ort": "Bern",
    "kanton": "BE",
    "land": "Schweiz",
    "brand": "RR",
    "lat": 46.954247,
    "lng": 7.433243
  },
  {
    "name": "RR Tankstelle Bern",
    "adresse": "Freiburgstrasse 443",
    "plz": "3018",
    "ort": "Bern",
    "kanton": "BE",
    "land": "Schweiz",
    "brand": "RR",
    "lat": 46.934222,
    "lng": 7.392051
  },
  {
    "name": "RR Tankstelle Herrenschwanden",
    "adresse": "Bernstrasse 36",
    "plz": "3037",
    "ort": "Herrenschwanden",
    "kanton": "BE",
    "land": "Schweiz",
    "brand": "RR",
    "lat": 46.977609,
    "lng": 7.421198
  },
  {
    "name": "RR Tankstelle Muri b. Bern",
    "adresse": "Thunstrasse 25",
    "plz": "3074",
    "ort": "Muri b. Bern",
    "kanton": "BE",
    "land": "Schweiz",
    "brand": "RR",
    "lat": 46.935417,
    "lng": 7.480156
  },
  {
    "name": "RR Tankstelle Niedermuhlern",
    "adresse": "Mühlerain 152a",
    "plz": "3087",
    "ort": "Niedermuhlern",
    "kanton": "BE",
    "land": "Schweiz",
    "brand": "RR",
    "lat": 46.862384,
    "lng": 7.460701
  },
  {
    "name": "RR Service Köniz",
    "adresse": "Schwarzenburgstrasse 241",
    "plz": "3098",
    "ort": "Schliern b. Köniz",
    "kanton": "BE",
    "land": "Schweiz",
    "brand": "RR",
    "lat": 46.925028,
    "lng": 7.41688
  },
  {
    "name": "RR Service  Münsingen",
    "adresse": "Thunstrasse 64",
    "plz": "3110",
    "ort": "Münsingen",
    "kanton": "BE",
    "land": "Schweiz",
    "brand": "RR",
    "lat": 46.864019,
    "lng": 7.564892
  },
  {
    "name": "RR Tankstelle Wichtrach",
    "adresse": "Bernstrasse 13",
    "plz": "3114",
    "ort": "Wichtrach",
    "kanton": "BE",
    "land": "Schweiz",
    "brand": "RR",
    "lat": 46.845565,
    "lng": 7.576461
  },
  {
    "name": "RR Tankstelle Belp",
    "adresse": "Steinbachstrasse 102",
    "plz": "3123",
    "ort": "Belp",
    "kanton": "BE",
    "land": "Schweiz",
    "brand": "RR",
    "lat": 46.903865,
    "lng": 7.481204
  },
  {
    "name": "RR Tankstelle Riggisberg",
    "adresse": "Grabenstrasse 6",
    "plz": "3132",
    "ort": "Riggisberg",
    "kanton": "BE",
    "land": "Schweiz",
    "brand": "RR",
    "lat": 46.810034,
    "lng": 7.480692
  },
  {
    "name": "RR Tankstelle Mittelhäusern",
    "adresse": "Schwarzenburgstrasse 1018",
    "plz": "3147",
    "ort": "Mittelhäusern",
    "kanton": "BE",
    "land": "Schweiz",
    "brand": "RR",
    "lat": 46.875173,
    "lng": 7.365652
  },
  {
    "name": "RR Tankstelle Mamishaus",
    "adresse": "Thunstrasse  78",
    "plz": "3152",
    "ort": "Mamishaus",
    "kanton": "BE",
    "land": "Schweiz",
    "brand": "RR",
    "lat": 46.81917,
    "lng": 7.365731
  },
  {
    "name": "RR Tankstelle Rüschegg Heubach",
    "adresse": "Wislisau 590",
    "plz": "3154",
    "ort": "Rüschegg Heubach",
    "kanton": "BE",
    "land": "Schweiz",
    "brand": "RR",
    "lat": 46.808274,
    "lng": 7.407963
  },
  {
    "name": "RR Tankstelle Riffenmatt",
    "adresse": "Kappelen 30b",
    "plz": "3156",
    "ort": "Riffenmatt",
    "kanton": "BE",
    "land": "Schweiz",
    "brand": "RR",
    "lat": 46.768045,
    "lng": 7.352331
  },
  {
    "name": "MP Station Flamatt",
    "adresse": "Neueneggstrasse 2",
    "plz": "3175",
    "ort": "Flamatt",
    "kanton": "FR",
    "land": "Schweiz",
    "brand": "MP",
    "lat": 46.889724,
    "lng": 7.310016
  },
  {
    "name": "MP Station Gurmels",
    "adresse": "Dürenbergstrasse 42",
    "plz": "3212",
    "ort": "Kleingurmels",
    "kanton": "FR",
    "land": "Schweiz",
    "brand": "MP",
    "lat": 46.894594,
    "lng": 7.178924
  },
  {
    "name": "RR Tankstelle Gempenach",
    "adresse": "Hauptstrasse 41",
    "plz": "3215",
    "ort": "Lurtigen",
    "kanton": "FR",
    "land": "Schweiz",
    "brand": "RR",
    "lat": 46.940049,
    "lng": 7.195839
  },
  {
    "name": "RR Tankstelle Ried bei Kerzers",
    "adresse": "Dorfstrasse 61",
    "plz": "3216",
    "ort": "Ried b. Kerzers",
    "kanton": "FR",
    "land": "Schweiz",
    "brand": "RR",
    "lat": 46.953624,
    "lng": 7.186488
  },
  {
    "name": "RR Tankstelle Ins",
    "adresse": "Müntschemiergasse 56",
    "plz": "3232",
    "ort": "Ins",
    "kanton": "BE",
    "land": "Schweiz",
    "brand": "RR",
    "lat": 47.004359,
    "lng": 7.114887
  },
  {
    "name": "MP Tankstelle Gampelen",
    "adresse": "Neuenburgstrasse 19",
    "plz": "3236",
    "ort": "Gampelen",
    "kanton": "BE",
    "land": "Schweiz",
    "brand": "MP",
    "lat": 47.015542,
    "lng": 7.054465
  },
  {
    "name": "MP Tankstelle Gals",
    "adresse": "Dorfstrasse 54",
    "plz": "3238",
    "ort": "Gals",
    "kanton": "BE",
    "land": "Schweiz",
    "brand": "MP",
    "lat": 47.032018,
    "lng": 7.056499
  },
  {
    "name": "RR Tankstelle Lyss",
    "adresse": "Bernstrasse 72",
    "plz": "3250",
    "ort": "Lyss",
    "kanton": "BE",
    "land": "Schweiz",
    "brand": "RR",
    "lat": 47.067518,
    "lng": 7.321258
  },
  {
    "name": "RR Tankstelle Schnottwil",
    "adresse": "Bürenstrasse 10",
    "plz": "3253",
    "ort": "Schnottwil",
    "kanton": "SO",
    "land": "Schweiz",
    "brand": "RR",
    "lat": 47.113141,
    "lng": 7.389701
  },
  {
    "name": "RR Tankstelle Büren an der Aare",
    "adresse": "Jurastrasse 15",
    "plz": "3294",
    "ort": "Meienried",
    "kanton": "BE",
    "land": "Schweiz",
    "brand": "RR",
    "lat": 47.143285,
    "lng": 7.373336
  },
  {
    "name": "RR Tankstelle Rüti bei Büren",
    "adresse": "Solothurnstrasse 4",
    "plz": "3295",
    "ort": "Rüti b. Büren",
    "kanton": "BE",
    "land": "Schweiz",
    "brand": "RR",
    "lat": 47.15254,
    "lng": 7.405081
  },
  {
    "name": "MP Tankstelle Arch",
    "adresse": "Bürenstrasse 27",
    "plz": "3296",
    "ort": "Arch",
    "kanton": "BE",
    "land": "Schweiz",
    "brand": "MP",
    "lat": 47.16464,
    "lng": 7.423519
  },
  {
    "name": "MP Service Wangen an der Aare",
    "adresse": "Wangenriedstrasse 1",
    "plz": "3380",
    "ort": "Wangen an der Aare",
    "kanton": "BE",
    "land": "Schweiz",
    "brand": "MP",
    "lat": 47.227015,
    "lng": 7.653823
  },
  {
    "name": "RR Service Burgdorf Lyssachstrasse",
    "adresse": "Lyssachstrasse 141",
    "plz": "3400",
    "ort": "Burgdorf",
    "kanton": "BE",
    "land": "Schweiz",
    "brand": "RR",
    "lat": 47.059962,
    "lng": 7.612407
  },
  {
    "name": "RR Tankstelle Burgdorf",
    "adresse": "Kirchbergstrasse 219",
    "plz": "3400",
    "ort": "Burgdorf",
    "kanton": "BE",
    "land": "Schweiz",
    "brand": "RR",
    "lat": 47.068217,
    "lng": 7.602625
  },
  {
    "name": "RR Tankstelle Schafhausen",
    "adresse": "Thunstrasse 96",
    "plz": "3415",
    "ort": "Schafhausen im Emmental",
    "kanton": "BE",
    "land": "Schweiz",
    "brand": "RR",
    "lat": 46.984547,
    "lng": 7.646299
  },
  {
    "name": "RR Tankstelle Alchenflüh",
    "adresse": "Jurastrasse 2a",
    "plz": "3422",
    "ort": "Rüdtligen",
    "kanton": "BE",
    "land": "Schweiz",
    "brand": "RR",
    "lat": 47.08329,
    "lng": 7.5793
  },
  {
    "name": "RR Tankstelle Grünenmatt",
    "adresse": "Sumiswaldstrasse 29",
    "plz": "3452",
    "ort": "Grünenmatt",
    "kanton": "BE",
    "land": "Schweiz",
    "brand": "RR",
    "lat": 47.003846,
    "lng": 7.715648
  },
  {
    "name": "RR Tankstelle Heimisbach",
    "adresse": "Thal 124",
    "plz": "3453",
    "ort": "Heimisbach",
    "kanton": "BE",
    "land": "Schweiz",
    "brand": "RR",
    "lat": 47.0188,
    "lng": 7.779065
  },
  {
    "name": "RR Tankstelle Häusernmoos",
    "adresse": "Huttwilstrasse 33",
    "plz": "3463",
    "ort": "Häusernmoos im Emmental",
    "kanton": "BE",
    "land": "Schweiz",
    "brand": "RR",
    "lat": 47.080215,
    "lng": 7.74949
  },
  {
    "name": "RR Tankstelle Biglen",
    "adresse": "Rohrstrasse 10",
    "plz": "3507",
    "ort": "Biglen",
    "kanton": "BE",
    "land": "Schweiz",
    "brand": "RR",
    "lat": 46.927184,
    "lng": 7.621516
  },
  {
    "name": "RR Tankstelle Biglen Dättlig",
    "adresse": "Dättlig 10",
    "plz": "3507",
    "ort": "Biglen",
    "kanton": "BE",
    "land": "Schweiz",
    "brand": "RR",
    "lat": 46.92510133,
    "lng": 7.624144438
  },
  {
    "name": "RR Tankstelle Konolfingen Emmentalstr 35",
    "adresse": "Emmentalstrasse 35",
    "plz": "3510",
    "ort": "Konolfingen",
    "kanton": "BE",
    "land": "Schweiz",
    "brand": "RR",
    "lat": 46.88201,
    "lng": 7.62554
  },
  {
    "name": "RR Tankstelle Konolfingen Emmentalstr 49a",
    "adresse": "Emmentalstrasse 49a",
    "plz": "3510",
    "ort": "Konolfingen",
    "kanton": "BE",
    "land": "Schweiz",
    "brand": "RR",
    "lat": 46.88299,
    "lng": 7.62731
  },
  {
    "name": "RR Tankstelle Bowil",
    "adresse": "Bernstrasse 6",
    "plz": "3533",
    "ort": "Bowil",
    "kanton": "BE",
    "land": "Schweiz",
    "brand": "RR",
    "lat": 46.900238,
    "lng": 7.69452
  },
  {
    "name": "RR Tankstelle Eggiwil",
    "adresse": "Längmatt 526",
    "plz": "3537",
    "ort": "Eggiwil",
    "kanton": "BE",
    "land": "Schweiz",
    "brand": "RR",
    "lat": 46.878624,
    "lng": 7.7919202
  },
  {
    "name": "RR Tankstelle Bärau",
    "adresse": "Bäraustrasse 16",
    "plz": "3552",
    "ort": "Bärau",
    "kanton": "BE",
    "land": "Schweiz",
    "brand": "RR",
    "lat": 46.934626,
    "lng": 7.80734
  },
  {
    "name": "RR Tankstelle Schwarzenegg",
    "adresse": "Weier 4a",
    "plz": "3616",
    "ort": "Schwarzenegg",
    "kanton": "BE",
    "land": "Schweiz",
    "brand": "RR",
    "lat": 46.794954,
    "lng": 7.718314
  },
  {
    "name": "RR Tankstelle Merligen",
    "adresse": "Seestrasse 275",
    "plz": "3658",
    "ort": "Merligen",
    "kanton": "BE",
    "land": "Schweiz",
    "brand": "RR",
    "lat": 46.6983648862,
    "lng": 7.7374615455
  },
  {
    "name": "RR Tankstelle Merligen See",
    "adresse": "Seestrasse 275",
    "plz": "3658",
    "ort": "Merligen",
    "kanton": "BE",
    "land": "Schweiz",
    "brand": "RR",
    "lat": 46.698377,
    "lng": 7.737427
  },
  {
    "name": "RR Tankstelle Spiez",
    "adresse": "Thunstrasse 72",
    "plz": "3700",
    "ort": "Spiez",
    "kanton": "BE",
    "land": "Schweiz",
    "brand": "RR",
    "lat": 46.691785,
    "lng": 7.667346
  },
  {
    "name": "RR Tankstelle Frutigen",
    "adresse": "Obere Bahnhofstrasse 23",
    "plz": "3714",
    "ort": "Wengi b. Frutigen",
    "kanton": "BE",
    "land": "Schweiz",
    "brand": "RR",
    "lat": 46.591117,
    "lng": 7.650714
  },
  {
    "name": "RR Tankstelle Zweisimmen",
    "adresse": "Thunstrasse 7",
    "plz": "3770",
    "ort": "Zweisimmen",
    "kanton": "BE",
    "land": "Schweiz",
    "brand": "RR",
    "lat": 46.555066,
    "lng": 7.373172
  },
  {
    "name": "RR Tankstelle Interlaken",
    "adresse": "Höhenweg 199",
    "plz": "3800",
    "ort": "Interlaken",
    "kanton": "BE",
    "land": "Schweiz",
    "brand": "RR",
    "lat": 46.689009,
    "lng": 7.863749
  },
  {
    "name": "RR Tankstelle Goldswil b. Interlaken",
    "adresse": "Hauptstrasse 70",
    "plz": "3805",
    "ort": "Goldswil b. Interlaken",
    "kanton": "BE",
    "land": "Schweiz",
    "brand": "RR",
    "lat": 46.698109,
    "lng": 7.881253
  },
  {
    "name": "RR Tankstelle Böningen",
    "adresse": "Interlakenstrasse 25",
    "plz": "3806",
    "ort": "Bönigen b. Interlaken",
    "kanton": "BE",
    "land": "Schweiz",
    "brand": "RR",
    "lat": 46.688292,
    "lng": 7.88879
  },
  {
    "name": "RR Tankstelle Grindelwald",
    "adresse": "Dorfstrasse 18",
    "plz": "3818",
    "ort": "Grindelwald",
    "kanton": "BE",
    "land": "Schweiz",
    "brand": "RR",
    "lat": 46.62557,
    "lng": 8.0246
  },
  {
    "name": "RR Tankstelle Ringgenberg",
    "adresse": "Hauptstrasse 276",
    "plz": "3852",
    "ort": "Ringgenberg BE",
    "kanton": "BE",
    "land": "Schweiz",
    "brand": "RR",
    "lat": 46.698088,
    "lng": 7.881043
  },
  {
    "name": "RR Tankstelle Kippel",
    "adresse": "Hauptstrasse 4",
    "plz": "3917",
    "ort": "Kippel",
    "kanton": "VS",
    "land": "Schweiz",
    "brand": "RR",
    "lat": 46.397941,
    "lng": 7.76841
  },
  {
    "name": "RR Tankstelle Susten",
    "adresse": "Kantonsstrasse 18",
    "plz": "3952",
    "ort": "Susten",
    "kanton": "VS",
    "land": "Schweiz",
    "brand": "RR",
    "lat": 46.311302,
    "lng": 7.637017
  },
  {
    "name": "MP Station Venthône",
    "adresse": "Route de Montana 29",
    "plz": "3973",
    "ort": "Venthône",
    "kanton": "VS",
    "land": "Schweiz",
    "brand": "MP",
    "lat": 46.310711,
    "lng": 7.530921
  },
  {
    "name": "RR Tankstelle Basel Schützengraben",
    "adresse": "Schützengraben  23",
    "plz": "4051",
    "ort": "Basel",
    "kanton": "BS",
    "land": "Schweiz",
    "brand": "RR",
    "lat": 47.55615,
    "lng": 7.58166
  },
  {
    "name": "RR Tankstelle Basel",
    "adresse": "Gundeldingerstrasse 315",
    "plz": "4053",
    "ort": "Basel",
    "kanton": "BS",
    "land": "Schweiz",
    "brand": "RR",
    "lat": 47.539833,
    "lng": 7.594425
  },
  {
    "name": "RR Tankstelle Basel Lyonstrasse",
    "adresse": "Lyonstrasse 18",
    "plz": "4053",
    "ort": "Basel",
    "kanton": "BS",
    "land": "Schweiz",
    "brand": "RR",
    "lat": 47.535336,
    "lng": 7.607387
  },
  {
    "name": "RR Tankstelle Basel Wanderstrasse",
    "adresse": "Wanderstrasse 63",
    "plz": "4054",
    "ort": "Basel",
    "kanton": "BS",
    "land": "Schweiz",
    "brand": "RR",
    "lat": 47.552323,
    "lng": 7.566173
  },
  {
    "name": "RR Service Basel",
    "adresse": "Weilerweg 11",
    "plz": "4057",
    "ort": "Basel",
    "kanton": "BS",
    "land": "Schweiz",
    "brand": "RR",
    "lat": 47.5850361238,
    "lng": 7.5934808053
  },
  {
    "name": "RR Service Basel",
    "adresse": "Klingentalstrasse 12",
    "plz": "4057",
    "ort": "Basel",
    "kanton": "BS",
    "land": "Schweiz",
    "brand": "RR",
    "lat": 47.5633,
    "lng": 7.5931
  },
  {
    "name": "RR Tankstelle Basel Freiburgerstrasse",
    "adresse": "Freiburgerstrasse 71",
    "plz": "4057",
    "ort": "Basel",
    "kanton": "BS",
    "land": "Schweiz",
    "brand": "RR",
    "lat": 47.57975,
    "lng": 7.60358
  },
  {
    "name": "RR Tankstelle Basel Hochbergerstrasse",
    "adresse": "Hochbergerstrasse  50",
    "plz": "4057",
    "ort": "Basel",
    "kanton": "BS",
    "land": "Schweiz",
    "brand": "RR",
    "lat": 47.57671,
    "lng": 7.59787
  },
  {
    "name": "RR Tankstelle Basel Klybeck",
    "adresse": "Klybeckstrasse 7",
    "plz": "4058",
    "ort": "Basel",
    "kanton": "BS",
    "land": "Schweiz",
    "brand": "RR",
    "lat": 47.5649310719,
    "lng": 7.5912055822
  },
  {
    "name": "RR Tankstelle Oberwil",
    "adresse": "Binningerstrasse 54/56",
    "plz": "4104",
    "ort": "Oberwil BL",
    "kanton": "BL",
    "land": "Schweiz",
    "brand": "RR",
    "lat": 47.516902,
    "lng": 7.558513
  },
  {
    "name": "RR Tankstelle Bättwil",
    "adresse": "Hauptstrasse  59",
    "plz": "4112",
    "ort": "Flüh",
    "kanton": "SO",
    "land": "Schweiz",
    "brand": "RR",
    "lat": 47.48949,
    "lng": 7.50454
  },
  {
    "name": "RR Tankstelle Birsfelden",
    "adresse": "Rheinfelderstrasse 2",
    "plz": "4127",
    "ort": "Birsfelden",
    "kanton": "BL",
    "land": "Schweiz",
    "brand": "RR",
    "lat": 47.55144,
    "lng": 7.62422
  },
  {
    "name": "RR Tankstelle Muttenz",
    "adresse": "St. Jakobs-Strasse 16",
    "plz": "4132",
    "ort": "Muttenz",
    "kanton": "BL",
    "land": "Schweiz",
    "brand": "RR",
    "lat": 47.52883,
    "lng": 7.64573
  },
  {
    "name": "RR Service Münchenstein",
    "adresse": "Hauptstrasse 60",
    "plz": "4142",
    "ort": "Münchenstein",
    "kanton": "BL",
    "land": "Schweiz",
    "brand": "RR",
    "lat": 47.51025,
    "lng": 7.62033
  },
  {
    "name": "RR Tankstelle Münchenstein",
    "adresse": "Emil-Frey-Strasse 35",
    "plz": "4142",
    "ort": "Münchenstein",
    "kanton": "BL",
    "land": "Schweiz",
    "brand": "RR",
    "lat": 47.53201,
    "lng": 7.611692
  },
  {
    "name": "RR Tankstelle Reinach",
    "adresse": "Hauptstrasse 68",
    "plz": "4153",
    "ort": "Reinach BL",
    "kanton": "BL",
    "land": "Schweiz",
    "brand": "RR",
    "lat": 47.48996,
    "lng": 7.58944
  },
  {
    "name": "RR Tankstelle Büsserach",
    "adresse": "Breitenbachstrasse 46",
    "plz": "4227",
    "ort": "Büsserach",
    "kanton": "SO",
    "land": "Schweiz",
    "brand": "RR",
    "lat": 47.395093,
    "lng": 7.541962
  },
  {
    "name": "RR Tankstelle Rheinfelden",
    "adresse": "Zürcherstrasse 7",
    "plz": "4310",
    "ort": "Rheinfelden",
    "kanton": "AG",
    "land": "Schweiz",
    "brand": "RR",
    "lat": 47.552897,
    "lng": 7.797139
  },
  {
    "name": "RR Tankstelle Magden",
    "adresse": "Brüelstrasse  33",
    "plz": "4312",
    "ort": "Magden",
    "kanton": "AG",
    "land": "Schweiz",
    "brand": "RR",
    "lat": 47.530115,
    "lng": 7.804659
  },
  {
    "name": "RR Tankstelle Hellikon",
    "adresse": "Hauptstrasse 77",
    "plz": "4316",
    "ort": "Hellikon",
    "kanton": "AG",
    "land": "Schweiz",
    "brand": "RR",
    "lat": 47.506886,
    "lng": 7.926926
  },
  {
    "name": "RR Tankstelle Frenkendorf",
    "adresse": "Rheinstrasse 93",
    "plz": "4402",
    "ort": "Frenkendorf",
    "kanton": "BL",
    "land": "Schweiz",
    "brand": "RR",
    "lat": 47.50852,
    "lng": 7.72051
  },
  {
    "name": "RR Service Liestal",
    "adresse": "Gasstrasse 11",
    "plz": "4410",
    "ort": "Liestal",
    "kanton": "BL",
    "land": "Schweiz",
    "brand": "RR",
    "lat": 47.487016,
    "lng": 7.733738
  },
  {
    "name": "RR Tankstelle Reigoldswil",
    "adresse": "Ziefenstrasse 5",
    "plz": "4418",
    "ort": "Reigoldswil",
    "kanton": "BL",
    "land": "Schweiz",
    "brand": "RR",
    "lat": 47.40577,
    "lng": 7.68972
  },
  {
    "name": "RR Tankstelle Rümlingen",
    "adresse": "Hauptstrasse 67",
    "plz": "4444",
    "ort": "Rümlingen",
    "kanton": "BL",
    "land": "Schweiz",
    "brand": "RR",
    "lat": 47.420693,
    "lng": 7.846771
  },
  {
    "name": "MP Tankstelle Sissach",
    "adresse": "Gewerbestrasse 7",
    "plz": "4450",
    "ort": "Sissach",
    "kanton": "BL",
    "land": "Schweiz",
    "brand": "MP",
    "lat": 47.467892,
    "lng": 7.803281
  },
  {
    "name": "RR Tankstelle Gelterkinden",
    "adresse": "Ergolzstrasse 4",
    "plz": "4460",
    "ort": "Gelterkinden",
    "kanton": "BL",
    "land": "Schweiz",
    "brand": "RR",
    "lat": 47.46635,
    "lng": 7.855171
  },
  {
    "name": "RR Tankstelle Böckten",
    "adresse": "Hauptstrasse 22",
    "plz": "4461",
    "ort": "Böckten",
    "kanton": "BL",
    "land": "Schweiz",
    "brand": "RR",
    "lat": 47.463285,
    "lng": 7.839627
  },
  {
    "name": "RR Tankstelle Zuchwil",
    "adresse": "Luterbachstrasse 51",
    "plz": "4528",
    "ort": "Zuchwil",
    "kanton": "SO",
    "land": "Schweiz",
    "brand": "RR",
    "lat": 47.210201,
    "lng": 7.563091
  },
  {
    "name": "MP Tankstelle Riedholz",
    "adresse": "Buchenstrasse 14",
    "plz": "4533",
    "ort": "Riedholz",
    "kanton": "SO",
    "land": "Schweiz",
    "brand": "MP",
    "lat": 47.231215,
    "lng": 7.571034
  },
  {
    "name": "RR Tankstelle Wiedlisbach",
    "adresse": "Baselstrasse 8",
    "plz": "4537",
    "ort": "Wiedlisbach",
    "kanton": "BE",
    "land": "Schweiz",
    "brand": "RR",
    "lat": 47.252632,
    "lng": 7.649526
  },
  {
    "name": "RR Tankstelle Deitingen",
    "adresse": "Solothurnstrasse 34",
    "plz": "4543",
    "ort": "Deitingen",
    "kanton": "SO",
    "land": "Schweiz",
    "brand": "RR",
    "lat": 47.214361,
    "lng": 7.614591
  },
  {
    "name": "RR Tankstelle Subingen",
    "adresse": "Luzernstrasse 58",
    "plz": "4553",
    "ort": "Subingen",
    "kanton": "SO",
    "land": "Schweiz",
    "brand": "RR",
    "lat": 47.193547,
    "lng": 7.622134
  },
  {
    "name": "RR Service Olten",
    "adresse": "Baslerstrasse 77",
    "plz": "4600",
    "ort": "Olten",
    "kanton": "SO",
    "land": "Schweiz",
    "brand": "RR",
    "lat": 47.355136,
    "lng": 7.901711
  },
  {
    "name": "RR Tankstelle Hägendorf",
    "adresse": "Im Herzel 7",
    "plz": "4614",
    "ort": "Hägendorf",
    "kanton": "SO",
    "land": "Schweiz",
    "brand": "RR",
    "lat": 47.331118,
    "lng": 7.83741
  },
  {
    "name": "RR Tankstelle Starrkirch",
    "adresse": "Aarauerstrasse 16",
    "plz": "4656",
    "ort": "Starrkirch-Wil",
    "kanton": "SO",
    "land": "Schweiz",
    "brand": "RR",
    "lat": 47.352067,
    "lng": 7.925305
  },
  {
    "name": "RR Tankstelle Oftringen",
    "adresse": "Bernstrasse 39",
    "plz": "4665",
    "ort": "Oftringen",
    "kanton": "AG",
    "land": "Schweiz",
    "brand": "RR",
    "lat": 47.30797,
    "lng": 7.90954
  },
  {
    "name": "RR Tankstelle Oftringen Äuss. Luzernerstrasse",
    "adresse": "Äuss. Luzernerstrasse 7",
    "plz": "4665",
    "ort": "Oftringen",
    "kanton": "AG",
    "land": "Schweiz",
    "brand": "RR",
    "lat": 47.30257,
    "lng": 7.93251
  },
  {
    "name": "RR Tankstelle Oensingen",
    "adresse": "Bittertenstrasse 16",
    "plz": "4702",
    "ort": "Oensingen",
    "kanton": "SO",
    "land": "Schweiz",
    "brand": "RR",
    "lat": 47.284428,
    "lng": 7.708721
  },
  {
    "name": "RR Tankstelle Niederbipp",
    "adresse": "Jurastrase 4",
    "plz": "4704",
    "ort": "Wolfisberg",
    "kanton": "BE",
    "land": "Schweiz",
    "brand": "RR",
    "lat": 47.262753,
    "lng": 7.700792
  },
  {
    "name": "RR Tankstelle Balsthal",
    "adresse": "Lindenallee 15",
    "plz": "4710",
    "ort": "Balsthal",
    "kanton": "SO",
    "land": "Schweiz",
    "brand": "RR",
    "lat": 47.310975,
    "lng": 7.689627
  },
  {
    "name": "RR Tankstelle Balsthal Thalstrasse",
    "adresse": "Thalstrasse 29",
    "plz": "4710",
    "ort": "Balsthal",
    "kanton": "SO",
    "land": "Schweiz",
    "brand": "RR",
    "lat": 47.310981,
    "lng": 7.689625
  },
  {
    "name": "RR Tankstelle Mümliswil",
    "adresse": "Dorfstrasse 25",
    "plz": "4717",
    "ort": "Mümliswil",
    "kanton": "SO",
    "land": "Schweiz",
    "brand": "RR",
    "lat": 47.34439,
    "lng": 7.703656
  },
  {
    "name": "RR Tankstelle Holderbank",
    "adresse": "Hauptstrasse 93",
    "plz": "4718",
    "ort": "Holderbank SO",
    "kanton": "SO",
    "land": "Schweiz",
    "brand": "RR",
    "lat": 47.332318,
    "lng": 7.750725
  },
  {
    "name": "RR Tankstelle Ramiswil",
    "adresse": "Passwangstrasse 156",
    "plz": "4719",
    "ort": "Ramiswil",
    "kanton": "SO",
    "land": "Schweiz",
    "brand": "RR",
    "lat": 47.346186,
    "lng": 7.657281
  },
  {
    "name": "RR Tankstelle Wikon",
    "adresse": "Luzernerstrasse 4",
    "plz": "4806",
    "ort": "Wikon",
    "kanton": "LU",
    "land": "Schweiz",
    "brand": "RR",
    "lat": 47.262893,
    "lng": 7.965437
  },
  {
    "name": "RR Tankstelle Mühlethal",
    "adresse": "Geiserstrasse 1",
    "plz": "4812",
    "ort": "Mühlethal",
    "kanton": "AG",
    "land": "Schweiz",
    "brand": "RR",
    "lat": 47.302334,
    "lng": 7.981669
  },
  {
    "name": "RR Tankstelle Langenthal",
    "adresse": "Schulhausstrasse 24",
    "plz": "4900",
    "ort": "Langenthal",
    "kanton": "BE",
    "land": "Schweiz",
    "brand": "RR",
    "lat": 47.21213,
    "lng": 7.78465
  },
  {
    "name": "RR Tankstelle Huttwil",
    "adresse": "Bahnhofstrasse 25",
    "plz": "4950",
    "ort": "Huttwil",
    "kanton": "BE",
    "land": "Schweiz",
    "brand": "RR",
    "lat": 47.113847,
    "lng": 7.845245
  },
  {
    "name": "RR Service Aarau",
    "adresse": "Gysulastrasse 1",
    "plz": "5000",
    "ort": "Aarau Altstadt",
    "kanton": "AG",
    "land": "Schweiz",
    "brand": "RR",
    "lat": 47.397067,
    "lng": 8.040962
  },
  {
    "name": "RR Tankstelle Niedergösgen",
    "adresse": "Hauptstrasse 80",
    "plz": "5013",
    "ort": "Niedergösgen",
    "kanton": "SO",
    "land": "Schweiz",
    "brand": "RR",
    "lat": 47.372012,
    "lng": 7.987765
  },
  {
    "name": "RR Tankstelle Erlinsbach - SO",
    "adresse": "Hauptstrasse 93",
    "plz": "5015",
    "ort": "Erlinsbach SO",
    "kanton": "SO",
    "land": "Schweiz",
    "brand": "RR",
    "lat": 47.40384,
    "lng": 8.00763
  },
  {
    "name": "RR Tankstelle Herznach",
    "adresse": "Hauptstrasse 64",
    "plz": "5027",
    "ort": "Herznach",
    "kanton": "AG",
    "land": "Schweiz",
    "brand": "RR",
    "lat": 47.47205,
    "lng": 8.05263
  },
  {
    "name": "RR Tankstelle Buchs",
    "adresse": "Pulverhausweg 5",
    "plz": "5033",
    "ort": "Buchs AG",
    "kanton": "AG",
    "land": "Schweiz",
    "brand": "RR",
    "lat": 47.396747,
    "lng": 8.068864
  },
  {
    "name": "MP Tankstelle Suhr Bernstrasse West",
    "adresse": "Bernstrasse West 58a",
    "plz": "5034",
    "ort": "Suhr",
    "kanton": "AG",
    "land": "Schweiz",
    "brand": "MP",
    "lat": 47.37004968,
    "lng": 8.07917598
  },
  {
    "name": "RR Service Suhr",
    "adresse": "Spittelweg 2",
    "plz": "5034",
    "ort": "Suhr",
    "kanton": "AG",
    "land": "Schweiz",
    "brand": "RR",
    "lat": 47.38059033,
    "lng": 8.09127178
  },
  {
    "name": "RR Tankstelle Suhr",
    "adresse": "Gewerbestrasse 3",
    "plz": "5034",
    "ort": "Suhr",
    "kanton": "AG",
    "land": "Schweiz",
    "brand": "RR",
    "lat": 47.36650957,
    "lng": 8.08411755
  },
  {
    "name": "RR Tankstelle Suhr Hintere Bahnhofstrasse",
    "adresse": "Hintere Bahnhofstrasse 4",
    "plz": "5034",
    "ort": "Suhr",
    "kanton": "AG",
    "land": "Schweiz",
    "brand": "RR",
    "lat": 47.369617,
    "lng": 8.081688
  },
  {
    "name": "RR Tankstelle Oberentfelden",
    "adresse": "Suhrerstrasse  57",
    "plz": "5036",
    "ort": "Oberentfelden",
    "kanton": "AG",
    "land": "Schweiz",
    "brand": "RR",
    "lat": 47.35999,
    "lng": 8.05504
  },
  {
    "name": "RR Tankstelle Muhen",
    "adresse": "Hauptstrasse 11",
    "plz": "5037",
    "ort": "Muhen",
    "kanton": "AG",
    "land": "Schweiz",
    "brand": "RR",
    "lat": 47.343861,
    "lng": 8.052745
  },
  {
    "name": "RR Tankstelle Schöftland",
    "adresse": "Aarauerstrasse 6",
    "plz": "5040",
    "ort": "Schöftland",
    "kanton": "AG",
    "land": "Schweiz",
    "brand": "RR",
    "lat": 47.310052,
    "lng": 8.051586
  },
  {
    "name": "RR Tankstelle Hirschthal",
    "adresse": "Hauptstrasse 135",
    "plz": "5042",
    "ort": "Hirschthal",
    "kanton": "AG",
    "land": "Schweiz",
    "brand": "RR",
    "lat": 47.319667,
    "lng": 8.052968
  },
  {
    "name": "RR Tankstelle Wölflinswil",
    "adresse": "Mühlmet 164",
    "plz": "5063",
    "ort": "Wölflinswil",
    "kanton": "AG",
    "land": "Schweiz",
    "brand": "RR",
    "lat": 47.45712,
    "lng": 8.00007
  },
  {
    "name": "RR Tankstelle Wölflinswil",
    "adresse": "Mühlmet 164",
    "plz": "5063",
    "ort": "Wölflinswil",
    "kanton": "AG",
    "land": "Schweiz",
    "brand": "RR",
    "lat": 47.4571391059,
    "lng": 7.999777791
  },
  {
    "name": "RR Tankstelle Oeschgen",
    "adresse": "Hauptstrasse 142",
    "plz": "5072",
    "ort": "Oeschgen",
    "kanton": "AG",
    "land": "Schweiz",
    "brand": "RR",
    "lat": 47.5143286375,
    "lng": 8.0149018658
  },
  {
    "name": "RR Tankstelle Wildegg",
    "adresse": "Lenzburgerstrasse  6",
    "plz": "5103",
    "ort": "Wildegg",
    "kanton": "AG",
    "land": "Schweiz",
    "brand": "RR",
    "lat": 47.41435,
    "lng": 8.165102
  },
  {
    "name": "RR Tankstelle Schinznach-Dorf",
    "adresse": "Unterdorfstrasse 37",
    "plz": "5107",
    "ort": "Schinznach Dorf",
    "kanton": "AG",
    "land": "Schweiz",
    "brand": "RR",
    "lat": 47.446133,
    "lng": 8.147372
  },
  {
    "name": "RR Tankstelle Holderbank Hauptstrasse 11",
    "adresse": "Hauptstrasse 11",
    "plz": "5113",
    "ort": "Holderbank AG",
    "kanton": "AG",
    "land": "Schweiz",
    "brand": "RR",
    "lat": 47.424713,
    "lng": 8.169644
  },
  {
    "name": "RR Tankstelle Hausen",
    "adresse": "Hauptstrasse 9",
    "plz": "5212",
    "ort": "Hausen AG",
    "kanton": "AG",
    "land": "Schweiz",
    "brand": "RR",
    "lat": 47.466122,
    "lng": 8.21151
  },
  {
    "name": "RR Tankstelle Döttingen",
    "adresse": "Hauptstrasse 78",
    "plz": "5312",
    "ort": "Döttingen",
    "kanton": "AG",
    "land": "Schweiz",
    "brand": "RR",
    "lat": 47.569511,
    "lng": 8.256747
  },
  {
    "name": "RR Tankstelle Klingnau",
    "adresse": "Koblenzerstrasse 40",
    "plz": "5313",
    "ort": "Klingnau",
    "kanton": "AG",
    "land": "Schweiz",
    "brand": "RR",
    "lat": 47.5849,
    "lng": 8.244859
  },
  {
    "name": "RR Tankstelle Koblenz",
    "adresse": "Bahnhofstrasse 56",
    "plz": "5322",
    "ort": "Koblenz",
    "kanton": "AG",
    "land": "Schweiz",
    "brand": "RR",
    "lat": 47.600075,
    "lng": 8.226195
  },
  {
    "name": "RR Tankstelle Koblenz Zollplatz",
    "adresse": "Zollplatz 7",
    "plz": "5322",
    "ort": "Koblenz",
    "kanton": "AG",
    "land": "Schweiz",
    "brand": "RR",
    "lat": 47.60863,
    "lng": 8.23459
  },
  {
    "name": "RR Tankstelle Birmenstorf",
    "adresse": "Bruggerstrasse 6",
    "plz": "5413",
    "ort": "Birmenstorf AG",
    "kanton": "AG",
    "land": "Schweiz",
    "brand": "RR",
    "lat": 47.460814,
    "lng": 8.246585
  },
  {
    "name": "RR Tankstelle Wettingen",
    "adresse": "Landstrasse 121",
    "plz": "5430",
    "ort": "Wettingen",
    "kanton": "AG",
    "land": "Schweiz",
    "brand": "RR",
    "lat": 47.464309,
    "lng": 8.330257
  },
  {
    "name": "RR Tankstelle Neuenhof",
    "adresse": "Zürcherstrasse 152",
    "plz": "5432",
    "ort": "Neuenhof",
    "kanton": "AG",
    "land": "Schweiz",
    "brand": "RR",
    "lat": 47.447709,
    "lng": 8.329544
  },
  {
    "name": "RR Tankstelle Fislisbach",
    "adresse": "Sommerhalde 18.1",
    "plz": "5442",
    "ort": "Fislisbach",
    "kanton": "AG",
    "land": "Schweiz",
    "brand": "RR",
    "lat": 47.44352,
    "lng": 8.28203
  },
  {
    "name": "RR Tankstelle Bellikon",
    "adresse": "Mutschellenstrasse 25",
    "plz": "5454",
    "ort": "Bellikon",
    "kanton": "AG",
    "land": "Schweiz",
    "brand": "RR",
    "lat": 47.38714,
    "lng": 8.3462
  },
  {
    "name": "RR Tankstelle Schafisheim",
    "adresse": "Seetalstrasse 136",
    "plz": "5503",
    "ort": "Schafisheim",
    "kanton": "AG",
    "land": "Schweiz",
    "brand": "RR",
    "lat": 47.374758,
    "lng": 8.142978
  },
  {
    "name": "RR Tankstelle Mellingen",
    "adresse": "Lenzburgerstrasse  8",
    "plz": "5507",
    "ort": "Mellingen",
    "kanton": "AG",
    "land": "Schweiz",
    "brand": "RR",
    "lat": 47.41745,
    "lng": 8.27238
  },
  {
    "name": "RR Tankstelle Mellingen Bahnhofstrasse",
    "adresse": "Bahnhofstrasse 7",
    "plz": "5507",
    "ort": "Mellingen",
    "kanton": "AG",
    "land": "Schweiz",
    "brand": "RR",
    "lat": 47.425645,
    "lng": 8.275351
  },
  {
    "name": "RR Tankstelle Lenzburg",
    "adresse": "Aarauerstrasse 20",
    "plz": "5600",
    "ort": "Lenzburg",
    "kanton": "AG",
    "land": "Schweiz",
    "brand": "RR",
    "lat": 47.38763,
    "lng": 8.16986
  },
  {
    "name": "RR Tankstelle Lenzburg Hendschikerstrasse",
    "adresse": "Hendschikerstrasse 9",
    "plz": "5600",
    "ort": "Lenzburg",
    "kanton": "AG",
    "land": "Schweiz",
    "brand": "RR",
    "lat": 47.390374,
    "lng": 8.183569
  },
  {
    "name": "RR Tankstelle Wohlen",
    "adresse": "Bremgarterstrasse 32",
    "plz": "5610",
    "ort": "Wohlen AG",
    "kanton": "AG",
    "land": "Schweiz",
    "brand": "RR",
    "lat": 47.348489,
    "lng": 8.28518
  },
  {
    "name": "RR Tankstelle Wohlen",
    "adresse": "Rigackerstrasse 15",
    "plz": "5610",
    "ort": "Wohlen AG",
    "kanton": "AG",
    "land": "Schweiz",
    "brand": "RR",
    "lat": 47.35946,
    "lng": 8.26726
  },
  {
    "name": "RR Tankstelle Muri",
    "adresse": "Pilatusstrasse 9",
    "plz": "5630",
    "ort": "Muri AG",
    "kanton": "AG",
    "land": "Schweiz",
    "brand": "RR",
    "lat": 47.264488,
    "lng": 8.349249
  },
  {
    "name": "RR Tankstelle Buttwil",
    "adresse": "Seetalstrasse 2",
    "plz": "5632",
    "ort": "Buttwil",
    "kanton": "AG",
    "land": "Schweiz",
    "brand": "RR",
    "lat": 47.269819,
    "lng": 8.313712
  },
  {
    "name": "RR Tankstelle Seengen",
    "adresse": "Boniswilerstrasse 33",
    "plz": "5707",
    "ort": "Seengen",
    "kanton": "AG",
    "land": "Schweiz",
    "brand": "RR",
    "lat": 47.32407,
    "lng": 8.19788
  },
  {
    "name": "RR Tankstelle Gontenschwil",
    "adresse": "Dorfstrasse 489",
    "plz": "5728",
    "ort": "Gontenschwil",
    "kanton": "AG",
    "land": "Schweiz",
    "brand": "RR",
    "lat": 47.2680038147,
    "lng": 8.147257
  },
  {
    "name": "RR Tankstelle Zetzwil",
    "adresse": "Hauptstrasse 11",
    "plz": "5732",
    "ort": "Zetzwil",
    "kanton": "AG",
    "land": "Schweiz",
    "brand": "RR",
    "lat": 47.286705,
    "lng": 8.149214
  },
  {
    "name": "RR Tankstelle Reinach",
    "adresse": "Tunaustrasse 24",
    "plz": "5734",
    "ort": "Reinach AG",
    "kanton": "AG",
    "land": "Schweiz",
    "brand": "RR",
    "lat": 47.251796,
    "lng": 8.187691
  },
  {
    "name": "RR Tankstelle Reinach",
    "adresse": "Aarauerstrasse 11",
    "plz": "5734",
    "ort": "Reinach AG",
    "kanton": "AG",
    "land": "Schweiz",
    "brand": "RR",
    "lat": 47.259109,
    "lng": 8.179093
  },
  {
    "name": "RR Tankstelle Safenwil",
    "adresse": "Köllikerstrasse 30",
    "plz": "5745",
    "ort": "Safenwil",
    "kanton": "AG",
    "land": "Schweiz",
    "brand": "RR",
    "lat": 47.32138,
    "lng": 7.9914
  },
  {
    "name": "RR Tankstelle Luzern",
    "adresse": "Spitalstrasse 8",
    "plz": "6004",
    "ort": "Luzern",
    "kanton": "LU",
    "land": "Schweiz",
    "brand": "RR",
    "lat": 47.059435,
    "lng": 8.30185
  },
  {
    "name": "RR Service Littau",
    "adresse": "Thorenbergstrasse 25",
    "plz": "6014",
    "ort": "Luzern",
    "kanton": "LU",
    "land": "Schweiz",
    "brand": "RR",
    "lat": 47.054174,
    "lng": 8.254914
  },
  {
    "name": "RR Tankstelle Neudorf",
    "adresse": "Luzernerstrasse 54",
    "plz": "6025",
    "ort": "Neudorf",
    "kanton": "LU",
    "land": "Schweiz",
    "brand": "RR",
    "lat": 47.176304,
    "lng": 8.209035
  },
  {
    "name": "RR Tankstelle Root",
    "adresse": "Oberfeld 25",
    "plz": "6037",
    "ort": "Root",
    "kanton": "LU",
    "land": "Schweiz",
    "brand": "RR",
    "lat": 47.106703,
    "lng": 8.381166
  },
  {
    "name": "RR Tankstelle Kägiswil",
    "adresse": "Brünigstrasse 10",
    "plz": "6056",
    "ort": "Kägiswil",
    "kanton": "OW",
    "land": "Schweiz",
    "brand": "RR",
    "lat": 46.924076,
    "lng": 8.264106
  },
  {
    "name": "RR Tankstelle Gettnau",
    "adresse": "Dorfstrasse 13",
    "plz": "6142",
    "ort": "Gettnau",
    "kanton": "LU",
    "land": "Schweiz",
    "brand": "RR",
    "lat": 47.141741,
    "lng": 7.97496
  },
  {
    "name": "RR Tankstelle Altbüron",
    "adresse": "Talbachmatte 1",
    "plz": "6147",
    "ort": "Altbüron",
    "kanton": "LU",
    "land": "Schweiz",
    "brand": "RR",
    "lat": 47.18303,
    "lng": 7.87751
  },
  {
    "name": "RR Tankstelle Luthern",
    "adresse": "Unterdorf 26",
    "plz": "6156",
    "ort": "Luthern Bad",
    "kanton": "LU",
    "land": "Schweiz",
    "brand": "RR",
    "lat": 47.063442,
    "lng": 7.917124
  },
  {
    "name": "RR Tankstelle Schüpfheim",
    "adresse": "Unterdorf 12",
    "plz": "6170",
    "ort": "Schüpfheim",
    "kanton": "LU",
    "land": "Schweiz",
    "brand": "RR",
    "lat": 46.955073,
    "lng": 8.018909
  },
  {
    "name": "RR Tankstelle Marbach",
    "adresse": "Dorfstrasse 22",
    "plz": "6196",
    "ort": "Marbach LU",
    "kanton": "LU",
    "land": "Schweiz",
    "brand": "RR",
    "lat": 46.854772,
    "lng": 7.900043
  },
  {
    "name": "RR Tankstelle Buchs LU",
    "adresse": "Kantonsstrasse 6",
    "plz": "6211",
    "ort": "Buchs LU",
    "kanton": "LU",
    "land": "Schweiz",
    "brand": "RR",
    "lat": 47.20757,
    "lng": 8.037231
  },
  {
    "name": "RR Tankstelle Winikon",
    "adresse": "Dorfstrasse 9",
    "plz": "6235",
    "ort": "Winikon",
    "kanton": "LU",
    "land": "Schweiz",
    "brand": "RR",
    "lat": 47.238512,
    "lng": 8.052997
  },
  {
    "name": "RR Tankstelle Wauwil",
    "adresse": "Dorfstrasse 19",
    "plz": "6242",
    "ort": "Wauwil",
    "kanton": "LU",
    "land": "Schweiz",
    "brand": "RR",
    "lat": 47.184776,
    "lng": 8.016874
  },
  {
    "name": "RR Tankstelle Baldegg",
    "adresse": "Hauptstrasse 8",
    "plz": "6283",
    "ort": "Baldegg",
    "kanton": "LU",
    "land": "Schweiz",
    "brand": "RR",
    "lat": 47.184907,
    "lng": 8.280847
  },
  {
    "name": "RR Tankstelle Hitzkirch",
    "adresse": "Luzernerstrasse 32",
    "plz": "6285",
    "ort": "Retschwil",
    "kanton": "LU",
    "land": "Schweiz",
    "brand": "RR",
    "lat": 47.220394,
    "lng": 8.2643
  },
  {
    "name": "RR Tankstelle Altwis",
    "adresse": "Hauptstrasse 30",
    "plz": "6286",
    "ort": "Altwis",
    "kanton": "LU",
    "land": "Schweiz",
    "brand": "RR",
    "lat": 47.23999,
    "lng": 8.250452
  },
  {
    "name": "RR Tankstelle Hämikon",
    "adresse": "Aescherstrasse 2",
    "plz": "6289",
    "ort": "Müswangen",
    "kanton": "LU",
    "land": "Schweiz",
    "brand": "RR",
    "lat": 47.238712,
    "lng": 8.276342
  },
  {
    "name": "Ruedi Rüssel Steinhausen",
    "adresse": "Zugerstrasse 47",
    "plz": "6312",
    "ort": "Steinhausen",
    "kanton": "ZG",
    "land": "Schweiz",
    "brand": "RR",
    "lat": 47.19217,
    "lng": 8.48826
  },
  {
    "name": "Ruedi Rüssel Hünenberg",
    "adresse": "Chamerstrasse 46",
    "plz": "6331",
    "ort": "Hünenberg",
    "kanton": "ZG",
    "land": "Schweiz",
    "brand": "RR",
    "lat": 47.17905,
    "lng": 8.43157
  },
  {
    "name": "RR Tankstelle Neuheim,",
    "adresse": "Edlibachstrasse 4",
    "plz": "6345",
    "ort": "Neuheim",
    "kanton": "ZG",
    "land": "Schweiz",
    "brand": "RR",
    "lat": 47.199421,
    "lng": 8.573734
  },
  {
    "name": "RR Tankstelle Weggis",
    "adresse": "Kantonsstrasse 77",
    "plz": "6353",
    "ort": "Weggis",
    "kanton": "LU",
    "land": "Schweiz",
    "brand": "RR",
    "lat": 47.0242636357,
    "lng": 8.4589100692
  },
  {
    "name": "RR Tankstelle Weggis See",
    "adresse": "Kantonsstrasse 77",
    "plz": "6353",
    "ort": "Weggis",
    "kanton": "LU",
    "land": "Schweiz",
    "brand": "RR",
    "lat": 47.024181,
    "lng": 8.458966
  },
  {
    "name": "RR Tankstelle Engelberg",
    "adresse": "Wydenstrasse 42",
    "plz": "6390",
    "ort": "Engelberg",
    "kanton": "OW",
    "land": "Schweiz",
    "brand": "RR",
    "lat": 46.818343,
    "lng": 8.412643
  },
  {
    "name": "RR Tankstelle Goldau",
    "adresse": "Gotthardstrasse 69",
    "plz": "6410",
    "ort": "Rigi Staffel",
    "kanton": "SZ",
    "land": "Schweiz",
    "brand": "RR",
    "lat": 47.042764,
    "lng": 8.551352
  },
  {
    "name": "RR Tankstelle Steinerberg",
    "adresse": "Goldauerstrasse 8",
    "plz": "6416",
    "ort": "Steinerberg",
    "kanton": "SZ",
    "land": "Schweiz",
    "brand": "RR",
    "lat": 47.053502,
    "lng": 8.581562
  },
  {
    "name": "RR Tankstelle Seewen",
    "adresse": "Bahnhofstrasse 121",
    "plz": "6423",
    "ort": "Seewen SZ",
    "kanton": "SZ",
    "land": "Schweiz",
    "brand": "RR",
    "lat": 47.025785,
    "lng": 8.633892
  },
  {
    "name": "RR Tankstelle Muotathal",
    "adresse": "Hauptstrasse 9",
    "plz": "6436",
    "ort": "Ried (Muotathal)",
    "kanton": "SZ",
    "land": "Schweiz",
    "brand": "RR",
    "lat": 46.97546,
    "lng": 8.7545
  },
  {
    "name": "RR Tankstelle Brunnen",
    "adresse": "Gersauerstrasse 82",
    "plz": "6440",
    "ort": "Brunnen",
    "kanton": "SZ",
    "land": "Schweiz",
    "brand": "RR",
    "lat": 47.000559,
    "lng": 8.57816
  },
  {
    "name": "RR Tankstelle Wassen",
    "adresse": "Gotthardstrasse 63",
    "plz": "6484",
    "ort": "Wassen UR",
    "kanton": "UR",
    "land": "Schweiz",
    "brand": "RR",
    "lat": 46.705363,
    "lng": 8.599021
  },
  {
    "name": "RR Stazione Tenero",
    "adresse": "Via San Gottardo 32",
    "plz": "6598",
    "ort": "Tenero",
    "kanton": "TI",
    "land": "Schweiz",
    "brand": "RR",
    "lat": 46.180719,
    "lng": 8.849737
  },
  {
    "name": "RR Tankstelle Chur",
    "adresse": "Richtstrasse 4",
    "plz": "7000",
    "ort": "Chur",
    "kanton": "GR",
    "land": "Schweiz",
    "brand": "RR",
    "lat": 46.8456931,
    "lng": 9.5095669929
  },
  {
    "name": "RR Tankstelle Chur",
    "adresse": "Richtstrasse 4",
    "plz": "7000",
    "ort": "Chur",
    "kanton": "GR",
    "land": "Schweiz",
    "brand": "RR",
    "lat": 46.8456931,
    "lng": 9.5095669929
  },
  {
    "name": "RR Tankstelle Domat/Ems",
    "adresse": "Reichenauerstrasse 36",
    "plz": "7013",
    "ort": "Domat/Ems",
    "kanton": "GR",
    "land": "Schweiz",
    "brand": "RR",
    "lat": 46.832498,
    "lng": 9.444994
  },
  {
    "name": "RR Tankstelle Flims",
    "adresse": "Via Nova 9A",
    "plz": "7017",
    "ort": "Flims Dorf",
    "kanton": "GR",
    "land": "Schweiz",
    "brand": "RR",
    "lat": 46.835918,
    "lng": 9.294318
  },
  {
    "name": "RR Tankstelle St. Peter",
    "adresse": "Arosastrasse 99",
    "plz": "7028",
    "ort": "St. Peter",
    "kanton": "GR",
    "land": "Schweiz",
    "brand": "RR",
    "lat": 46.833217,
    "lng": 9.658111
  },
  {
    "name": "RR Tankstelle Malans",
    "adresse": "Industriestrasse 6",
    "plz": "7208",
    "ort": "Malans GR",
    "kanton": "GR",
    "land": "Schweiz",
    "brand": "RR",
    "lat": 46.970424,
    "lng": 9.561793
  },
  {
    "name": "RR Tankstelle Maienfeld",
    "adresse": "Landstrasse 27",
    "plz": "7304",
    "ort": "Maienfeld",
    "kanton": "GR",
    "land": "Schweiz",
    "brand": "RR",
    "lat": 47.002145,
    "lng": 9.532225
  },
  {
    "name": "RR Tankstelle Bad Ragaz",
    "adresse": "Industriestrasse 88",
    "plz": "7310",
    "ort": "Bad Ragaz",
    "kanton": "SG",
    "land": "Schweiz",
    "brand": "RR",
    "lat": 47.01443,
    "lng": 9.496792
  },
  {
    "name": "RR Tankstelle Bonaduz",
    "adresse": "Industriestrasse 7",
    "plz": "7402",
    "ort": "Bonaduz",
    "kanton": "GR",
    "land": "Schweiz",
    "brand": "RR",
    "lat": 46.809594,
    "lng": 9.382642
  },
  {
    "name": "RR Tankstelle Sils i. D.",
    "adresse": "Oberdorf 22",
    "plz": "7411",
    "ort": "Sils im Domleschg",
    "kanton": "GR",
    "land": "Schweiz",
    "brand": "RR",
    "lat": 46.699221,
    "lng": 9.452352
  },
  {
    "name": "RR Service Maloja",
    "adresse": "Hauptstrasse 19",
    "plz": "7516",
    "ort": "Maloja",
    "kanton": "GR",
    "land": "Schweiz",
    "brand": "RR",
    "lat": 46.400157,
    "lng": 9.695652
  },
  {
    "name": "RR Tankstelle Susch",
    "adresse": "Chantun 60b",
    "plz": "7542",
    "ort": "Susch",
    "kanton": "GR",
    "land": "Schweiz",
    "brand": "RR",
    "lat": 46.7481270116,
    "lng": 10.0778964232
  },
  {
    "name": "RR Tankstelle Zürich Scheffelstr.",
    "adresse": "Scheffelstrasse 16",
    "plz": "8038",
    "ort": "Zürich",
    "kanton": "ZH",
    "land": "Schweiz",
    "brand": "RR",
    "lat": 47.3945,
    "lng": 8.52984
  },
  {
    "name": "RR Tankstelle Zürich Oerlikon",
    "adresse": "Schwamendingenstrasse 106",
    "plz": "8050",
    "ort": "Zürich",
    "kanton": "ZH",
    "land": "Schweiz",
    "brand": "RR",
    "lat": 47.4046,
    "lng": 8.556364
  },
  {
    "name": "RR Tankstelle Zürich",
    "adresse": "Winterthurerstrasse 451",
    "plz": "8051",
    "ort": "Zürich",
    "kanton": "ZH",
    "land": "Schweiz",
    "brand": "RR",
    "lat": 47.403946,
    "lng": 8.567165
  },
  {
    "name": "RR Tankstelle Oberengstringen",
    "adresse": "Zürcherstrasse 55",
    "plz": "8102",
    "ort": "Oberengstringen",
    "kanton": "ZH",
    "land": "Schweiz",
    "brand": "RR",
    "lat": 47.406173,
    "lng": 8.471165
  },
  {
    "name": "RR Tankstelle Forch",
    "adresse": "Wangen 30",
    "plz": "8127",
    "ort": "Forch",
    "kanton": "ZH",
    "land": "Schweiz",
    "brand": "RR",
    "lat": 47.321466,
    "lng": 8.640872
  },
  {
    "name": "RR Tankstelle Esslingen",
    "adresse": "Löwenstrasse 1",
    "plz": "8133",
    "ort": "Esslingen",
    "kanton": "ZH",
    "land": "Schweiz",
    "brand": "RR",
    "lat": 47.288846,
    "lng": 8.711951
  },
  {
    "name": "RR Tankstelle Hinwil",
    "adresse": "Überlandstrasse 23",
    "plz": "8340",
    "ort": "Hinwil",
    "kanton": "ZH",
    "land": "Schweiz",
    "brand": "RR",
    "lat": 47.30338,
    "lng": 8.833237
  },
  {
    "name": "RR Tankstelle Aadorf",
    "adresse": "Morgentalstrasse 24",
    "plz": "8355",
    "ort": "Aadorf",
    "kanton": "TG",
    "land": "Schweiz",
    "brand": "RR",
    "lat": 47.493644,
    "lng": 8.898101
  },
  {
    "name": "RR Tankstelle Embrach",
    "adresse": "Dorfstrasse 147",
    "plz": "8424",
    "ort": "Embrach",
    "kanton": "ZH",
    "land": "Schweiz",
    "brand": "RR",
    "lat": 47.512789,
    "lng": 8.593514
  },
  {
    "name": "RR Tankstelle Amlikon-Bissegg",
    "adresse": "Wilerstrasse 80",
    "plz": "8514",
    "ort": "Amlikon-Bissegg",
    "kanton": "TG",
    "land": "Schweiz",
    "brand": "RR",
    "lat": 47.563467,
    "lng": 9.047812
  },
  {
    "name": "RR Tankstelle Dozwil",
    "adresse": "Kesswilerstrasse 11",
    "plz": "8582",
    "ort": "Dozwil",
    "kanton": "TG",
    "land": "Schweiz",
    "brand": "RR",
    "lat": 47.57781,
    "lng": 9.318964
  },
  {
    "name": "RR Tankstelle Langrickenbach",
    "adresse": "Waldhof 10",
    "plz": "8585",
    "ort": "Zuben",
    "kanton": "TG",
    "land": "Schweiz",
    "brand": "RR",
    "lat": 47.5843638985,
    "lng": 9.2515019428
  },
  {
    "name": "RR Tankstelle Grüningen",
    "adresse": "Esslingerstrasse 2",
    "plz": "8627",
    "ort": "Grüningen",
    "kanton": "ZH",
    "land": "Schweiz",
    "brand": "RR",
    "lat": 47.283128,
    "lng": 8.761407
  },
  {
    "name": "RR Tankstelle Glarus",
    "adresse": "Landstrasse 71",
    "plz": "8750",
    "ort": "Riedern",
    "kanton": "GL",
    "land": "Schweiz",
    "brand": "RR",
    "lat": 47.04987,
    "lng": 9.059688
  },
  {
    "name": "RR Tankstelle Näfels",
    "adresse": "Oberdorf 40",
    "plz": "8752",
    "ort": "Näfels",
    "kanton": "GL",
    "land": "Schweiz",
    "brand": "RR",
    "lat": 47.094407,
    "lng": 9.060739
  },
  {
    "name": "RR Tankstelle Au",
    "adresse": "Seestrasse 325",
    "plz": "8804",
    "ort": "Au ZH",
    "kanton": "ZH",
    "land": "Schweiz",
    "brand": "RR",
    "lat": 47.247209,
    "lng": 8.639064
  },
  {
    "name": "RR Tankstelle Wädenswil",
    "adresse": "Schönenbergstrasse 139",
    "plz": "8820",
    "ort": "Wädenswil",
    "kanton": "ZH",
    "land": "Schweiz",
    "brand": "RR",
    "lat": 47.219138,
    "lng": 8.66973
  },
  {
    "name": "RR Tankstelle Wollerau",
    "adresse": "Allenwindenstrasse 10",
    "plz": "8832",
    "ort": "Wollerau",
    "kanton": "SZ",
    "land": "Schweiz",
    "brand": "RR",
    "lat": 47.184815,
    "lng": 8.683986
  },
  {
    "name": "RR Tankstelle Altendorf",
    "adresse": "Zürcherstrasse 61",
    "plz": "8852",
    "ort": "Altendorf",
    "kanton": "SZ",
    "land": "Schweiz",
    "brand": "RR",
    "lat": 47.192886,
    "lng": 8.819348
  },
  {
    "name": "RR Tankstelle Schübelbach",
    "adresse": "Bahnhofstrasse 1a",
    "plz": "8862",
    "ort": "Schübelbach",
    "kanton": "SZ",
    "land": "Schweiz",
    "brand": "RR",
    "lat": 47.17639,
    "lng": 8.940421
  },
  {
    "name": "RR Tankstelle Oberterzen",
    "adresse": "Quartnerstrasse 2",
    "plz": "8884",
    "ort": "Oberterzen",
    "kanton": "SG",
    "land": "Schweiz",
    "brand": "RR",
    "lat": 47.102358,
    "lng": 9.252047
  },
  {
    "name": "RR Tankstelle Mels",
    "adresse": "Zeughausstrasse 18",
    "plz": "8887",
    "ort": "Mels",
    "kanton": "SG",
    "land": "Schweiz",
    "brand": "RR",
    "lat": 47.055316,
    "lng": 9.41094
  },
  {
    "name": "RR Tankstelle Flums",
    "adresse": "Schulstrasse 2",
    "plz": "8890",
    "ort": "Flums",
    "kanton": "SG",
    "land": "Schweiz",
    "brand": "RR",
    "lat": 47.092406,
    "lng": 9.343544
  },
  {
    "name": "RR Tankstelle Hedingen",
    "adresse": "Affolternstrasse 12",
    "plz": "8908",
    "ort": "Hedingen",
    "kanton": "ZH",
    "land": "Schweiz",
    "brand": "RR",
    "lat": 47.296305,
    "lng": 8.448664
  },
  {
    "name": "RR Tankstelle Zwillikon",
    "adresse": "Ottenbacherstrasse 1",
    "plz": "8909",
    "ort": "Zwillikon",
    "kanton": "ZH",
    "land": "Schweiz",
    "brand": "RR",
    "lat": 47.290687,
    "lng": 8.444409
  },
  {
    "name": "RR Tankstelle Schlieren",
    "adresse": "Zürcherstrasse 145",
    "plz": "8952",
    "ort": "Schlieren",
    "kanton": "ZH",
    "land": "Schweiz",
    "brand": "RR",
    "lat": 47.396528,
    "lng": 8.466999
  },
  {
    "name": "RR Service Spreitenbach",
    "adresse": "Willestrasse 13",
    "plz": "8957",
    "ort": "Spreitenbach",
    "kanton": "AG",
    "land": "Schweiz",
    "brand": "RR",
    "lat": 47.419314,
    "lng": 8.375758
  },
  {
    "name": "RR Tankstelle Spreitenbach",
    "adresse": "Zentrumsstrasse",
    "plz": "8957",
    "ort": "Spreitenbach",
    "kanton": "AG",
    "land": "Schweiz",
    "brand": "RR",
    "lat": 47.420402,
    "lng": 8.369425
  },
  {
    "name": "RR Tankstelle St. Gallen",
    "adresse": "Langgasse 106",
    "plz": "9008",
    "ort": "St. Gallen",
    "kanton": "SG",
    "land": "Schweiz",
    "brand": "RR",
    "lat": 47.44186962144569,
    "lng": 9.393019919582914
  },
  {
    "name": "RR Tankstelle Egnach",
    "adresse": "Romanshornerstrasse 152",
    "plz": "9322",
    "ort": "Egnach",
    "kanton": "TG",
    "land": "Schweiz",
    "brand": "RR",
    "lat": 47.548959,
    "lng": 9.371695
  },
  {
    "name": "RR Tankstelle Rheineck",
    "adresse": "Hauptstrasse 76",
    "plz": "9424",
    "ort": "Rheineck",
    "kanton": "SG",
    "land": "Schweiz",
    "brand": "RR",
    "lat": 47.46333,
    "lng": 9.592792
  },
  {
    "name": "RR Tankstelle Berneck",
    "adresse": "Auerstrasse 34",
    "plz": "9442",
    "ort": "Büriswilen",
    "kanton": "AI",
    "land": "Schweiz",
    "brand": "RR",
    "lat": 47.428016,
    "lng": 9.623519
  },
  {
    "name": "RR Tankstelle Trübbach",
    "adresse": "Hauptstrasse 1",
    "plz": "9477",
    "ort": "Trübbach",
    "kanton": "SG",
    "land": "Schweiz",
    "brand": "RR",
    "lat": 47.076512,
    "lng": 9.483512
  }
]